,accuracy,formatted_address,google_place_id,input_string,latitude,longitude,number_of_results,postcode,status,type
0,APPROXIMATE,"Turin, Metropolitan City of Turin, Italy",ChIJJb4YZBJtiEcRv3ec1gP4A4k,"Non Disponibile, TORINO, Italia",45.070312,7.686856499999999,1,,OK,"locality,political"
1,APPROXIMATE,"Turin, Metropolitan City of Turin, Italy",ChIJJb4YZBJtiEcRv3ec1gP4A4k,"Non Disponibile, TORINO, Italia",45.070312,7.686856499999999,1,,OK,"locality,political"
2,APPROXIMATE,"Turin, Metropolitan City of Turin, Italy",ChIJJb4YZBJtiEcRv3ec1gP4A4k,"Non Disponibile, TORINO, Italia",45.070312,7.686856499999999,1,,OK,"locality,political"
3,ROOFTOP,"Via Gaspare Gorresio, 13, 10149 Torino TO, Italy",ChIJN_5k7jVsiEcRlUwUQEJEg8M,"VIA GORRESIO, 13, TORINO, Italia",45.0998603,7.6572,1,10149,OK,street_address
4,ROOFTOP,"Via Domenico Guidobono, 2, 10137 Torino TO, Italy",ChIJ9eux2UgTiEcRHdcyjUZOH_0,"VIA GUIDOBONO, 2, TORINO, Italia",45.0381925,7.6181788,1,10137,OK,street_address
5,ROOFTOP,"Via Lanzo, 146, 10148 Torino TO, Italy",ChIJ45GaJihsiEcRUBlf2SC0PkI,"STRADA DI LANZO, 146, TORINO, Italia",45.1176959,7.6573055,1,10148,OK,street_address
6,ROOFTOP,"Via Venarìa, 79, 10148 Torino TO, Italy",ChIJ9ZGWei5siEcR-lYQg_ML7A4,"VIA VENARIA 79/15, TORINO, Italia",45.11028,7.6584,1,10148,OK,street_address
7,ROOFTOP,"Via Lanzo, 28, 10148 Torino TO, Italy",ChIJ5f20rJ1uiEcRbCy6_iGu_7g,"VIA LANZO 28, TORINO, Italia",45.1205749,7.652961599999999,2,10148,OK,street_address
8,ROOFTOP,"Via Venarìa, 100, 10148 Torino TO, Italy",ChIJa_2Vwi5siEcR1Ah9TZIofOs,"VIA VENARIA, 100, TORINO, Italia",45.1121079,7.657483699999999,1,10148,OK,street_address
9,ROOFTOP,"Via Alfonso Badini Confalonieri, 74, 10148 Torino TO, Italy",ChIJ4ZV-FS5siEcRHHHNFGTHEsQ,"VIA BADINI CONFALONIERI N. 74, TORINO, Italia",45.1095742,7.657427,1,10148,OK,street_address
10,ROOFTOP,"Via Lanzo, 147, 10148 Torino TO, Italy",ChIJF1-2silsiEcRf5e8s9oo45k,"STRADA DI LANZO 147/11, TORINO, Italia",45.1162072,7.6578266,1,10148,OK,street_address
11,ROOFTOP,"Via Lanzo, 147, 10148 Torino TO, Italy",ChIJF1-2silsiEcRf5e8s9oo45k,"STRADA LANZO 147/11, TORINO, Italia",45.1162072,7.6578266,1,10148,OK,street_address
12,ROOFTOP,"Via Ettore Stampini, 25, 10148 Torino TO, Italy",ChIJazjlQi1siEcRQy1a_uwR-KE,"VIA   STAMPINI, 25, TORINO, Italia",45.1090128,7.6629065,1,10148,OK,street_address
13,ROOFTOP,"Via Giuseppe Romita, 19, 10137 Torino TO, Italy",ChIJ3z9zccpsiEcRV-lDHkG0lwM,"VIA ROMITA 19, TORINO, Italia",45.0480534,7.626065400000001,1,10137,OK,premise
14,ROOFTOP,"Via Gianfrancesco Fiochetto, 29, 10152 Torino TO, Italy",ChIJiQvbxXltiEcRILTYmooc4RI,"VIA FIOCHETTO 29, TORINO, Italia",45.075957,7.688963699999999,1,10152,OK,street_address
15,ROOFTOP,"Via Masserano, 4, 10152 Torino TO, Italy",ChIJKw9VNKdtiEcRGbir9zObLos,"VIA MASSERANO 4, TORINO, Italia",45.0806396,7.6732479,1,10152,OK,street_address
16,ROOFTOP,"Via Montevideo, 11, 10134 Torino TO, Italy",ChIJifUyv9ESiEcR_2Vw_6mY6Fs,"VIA MONTEVIDEO 11, TORINO, Italia",45.0364333,7.6541771,1,10134,OK,premise
17,RANGE_INTERPOLATED,"Via Gaetano Mosca, 11, 10147 Torino TO, Italy",Ei5WaWEgR2FldGFubyBNb3NjYSwgMTEsIDEwMTQ3IFRvcmlubyBUTywgSXRhbGlhIhoSGAoUChIJqepInsZtiEcRwaLz7IMnq0UQCw,"VIA MOSCA 11, TORINO, Italia",45.1027906,7.677369199999998,1,10147,OK,street_address
18,ROOFTOP,"Corso Grosseto, 112, 10148 Torino TO, Italy",ChIJ74SqV8RtiEcRoDZyCAjZXFc,"CORSO GROSSETO N. 112, TORINO, Italia",45.1047851,7.677618999999999,1,10148,OK,street_address
19,ROOFTOP,"Via Casteldelfino, 30, 10147 Torino TO, Italy",ChIJoeddY8htiEcRx2w-2gCzKWw,"VIA CASTELDELFINO 30, TORINO, Italia",45.1010479,7.6725463,1,10147,OK,street_address
20,ROOFTOP,"Via Baltimora, 171, 10136 Torino TO, Italy",ChIJLTz59stsiEcRSEFTDikvsjA,"VIA BALTIMORA 171, TORINO, Italia",45.04848639999999,7.6310655,1,10136,OK,street_address
21,ROOFTOP,"Via Bligny, 1, 10122 Torino TO, Italy",ChIJxagnXgttiEcRsJVVL3dUToU,"VIA BLIGNY 1 BIS, TORINO, Italia",45.0749127,7.6759051,1,10122,OK,street_address
22,ROOFTOP,"Via Bligny, 1, 10122 Torino TO, Italy",ChIJxagnXgttiEcRsJVVL3dUToU,"VIA BLIGNY 1 BIS, TORINO, Italia",45.0749127,7.6759051,1,10122,OK,street_address
23,ROOFTOP,"Via Michele Antonio Vibò, 62, 10147 Torino TO, Italy",ChIJEwMmTLhtiEcROPApSw6ztUE,"VIA VIBO' 62, TORINO, Italia",45.09596,7.673769999999999,1,10147,OK,street_address
24,ROOFTOP,"Via Giacinto Pacchiotti, 102, 10146 Torino TO, Italy",ChIJSTxvz4hsiEcR-LBUgm7svrM,"VIA PACCHIOTTI, 102, TORINO, Italia",45.07840239999999,7.624399899999998,1,10146,OK,street_address
25,ROOFTOP,"Via Giacinto Pacchiotti, 102, 10146 Torino TO, Italy",ChIJSTxvz4hsiEcR-LBUgm7svrM,"VIA PACCHIOTTI 102, TORINO, Italia",45.07840239999999,7.624399899999998,1,10146,OK,street_address
26,ROOFTOP,"Corso Enrico Tazzoli, 215, 10137 Torino TO, Italy",ChIJLYU3L0YTiEcR4T_44g-BXyU,"CORSO TAZZOLI, 215/1, TORINO, Italia",45.0360447,7.617101099999999,1,10137,OK,street_address
27,ROOFTOP,"Via Domodossola, 54, 10145 Torino TO, Italy",ChIJDTuCzPdsiEcR5qaPgDKOzKU,"VIA DOMODOSSOLA, 54, TORINO, Italia",45.0803407,7.6428717,1,10145,OK,street_address
28,ROOFTOP,"Via Carlo Lorenzini, 4, 10147 Torino TO, Italy",ChIJnVHmJ8dtiEcRCiyeYNHcMjs,"VIA LORENZINI, 4, TORINO, Italia",45.0999868,7.677997799999999,1,10147,OK,premise
29,ROOFTOP,"Via Fratelli Passoni, 9, 10146 Torino TO, Italy",ChIJV1sG_31siEcRYoiAekwGQFE,"VIA PASSONI 9, TORINO, Italia",45.083063,7.6182428,1,10146,OK,street_address
30,ROOFTOP,"Corso Orbassano, 155, 10136 Torino TO, Italy",ChIJRUeaDNVsiEcR3RL13RIE72I,"C.SO ORBASSANO,155/A, TORINO, Italia",45.04558919999999,7.6456827,1,10136,OK,street_address
31,ROOFTOP,"Corso Orbassano, 155, 10136 Torino TO, Italy",ChIJRUeaDNVsiEcR3RL13RIE72I,"C.SO ORBASSANO,155, TORINO, Italia",45.04558919999999,7.6456827,1,10136,OK,street_address
32,ROOFTOP,"Via Baltimora, 76, 10137 Torino TO, Italy",ChIJ4wTOZ9NsiEcR-Q0VRs7QkCo,"VIA BALTIMORA 76, TORINO, Italia",45.04526329999999,7.640930300000001,1,10137,OK,street_address
33,ROOFTOP,"Via Arcangelo Corelli, 4, 10154 Torino TO, Italy",ChIJs8AN8HRyiEcRlp32OJVGnh4,"VIA CORELLI 4, TORINO, Italia",45.0939018,7.7083016,1,10154,OK,premise
34,ROOFTOP,"Via Arcangelo Corelli, 4, 10154 Torino TO, Italy",ChIJs8AN8HRyiEcRlp32OJVGnh4,"VIA CORELLI 4, TORINO, Italia",45.0939018,7.7083016,1,10154,OK,premise
35,ROOFTOP,"Via Monte Rosa, 165, 10154 Torino TO, Italy",ChIJBYFwC_RtiEcRmCAwn5cZ73A,"VIA MONTEROSA 165, TORINO, Italia",45.0998388,7.7009791,1,10154,OK,street_address
36,ROOFTOP,"Piazza Giuseppe Cesare Abba, 13, 10154 Torino TO, Italy",ChIJC76TEHJyiEcREcuEyhoDnt4,"PIAZZA ABBA 13, TORINO, Italia",45.0912387,7.714374599999999,1,10154,OK,street_address
37,ROOFTOP,"Via del Carmine, 27, 10122 Torino TO, Italy",ChIJbVfbeAltiEcRdL390Z_wqfI,"VIA DEL CARMINE 27, TORINO, Italia",45.0769043,7.671907600000001,1,10122,OK,street_address
38,ROOFTOP,"Via del Carmine, 27, 10122 Torino TO, Italy",ChIJbVfbeAltiEcRdL390Z_wqfI,"VIA DEL CARMINE 27, TORINO, Italia",45.0769043,7.671907600000001,1,10122,OK,street_address
39,ROOFTOP,"Corso Giacomo Matteotti, 6, 10121 Torino TO, Italy",ChIJvVuoYmxtiEcRWR54JL6xdKw,"CORSO MATTEOTTI 6, TORINO, Italia",45.065714,7.677249,1,10121,OK,street_address
40,ROOFTOP,"Via Sebastiano Beato Valfrè, 8, 10121 Torino TO, Italy",ChIJ9Zno5A1tiEcR6hYF9bEQOvA,"VIA VALFRE' 8, TORINO, Italia",45.0706961,7.671148000000001,1,10121,OK,street_address
41,ROOFTOP,"Via Madama Cristina, 102, 10126 Torino TO, Italy",ChIJSe63TEltiEcRX0QrQgdzuNA,"VIA MADAMA CRISTINA 102, TORINO, Italia",45.04707,7.67542,1,10126,OK,street_address
42,ROOFTOP,"Via Madama Cristina, 102, 10126 Torino TO, Italy",ChIJSe63TEltiEcRX0QrQgdzuNA,"VIA MADAMA CRISTINA 102, TORINO, Italia",45.04707,7.67542,1,10126,OK,street_address
43,ROOFTOP,"Via Nuova, 2, 10133 Torino TO, Italy",ChIJ55pSd1gNiEcRNpGSTgilQLc,"VIA NUOVA 2, TORINO, Italia",45.02970699999999,7.687916599999999,1,10133,OK,street_address
44,ROOFTOP,"Via Aquileia, 8, 10133 Torino TO, Italy",ChIJsa1V1VJtiEcRFSpHdZdKFps,"VIA AQUILEIA 8, TORINO, Italia",45.04115410000001,7.682525900000001,1,10133,OK,street_address
45,ROOFTOP,"Via Bologna, 153, 10154 Torino TO, Italy",ChIJF1R7bXdyiEcRrcFNx3-U6gM,"VIA BOLOGNA, 153, TORINO, Italia",45.0880437,7.706240599999999,1,10154,OK,street_address
46,ROOFTOP,"Corso Giulio Cesare, 26, 10152 Torino TO, Italy",ChIJQZnvf5ttiEcRjwsINFPIAgU,"CORSO GIULIO CESARE, 26, TORINO, Italia",45.08301789999999,7.688000499999999,1,10152,OK,street_address
47,ROOFTOP,"Str. Castello di Mirafiori, 55, 10135 Torino TO, Italy",ChIJ56myMwQTiEcRq21pQFo-WXU,"STRADA CASTELLO DI MIRAFIORI, 55, TORINO, Italia",45.0124989,7.630178799999999,1,10135,OK,street_address
48,ROOFTOP,"Corso Moncalieri, 400, 10133 Torino TO, Italy",ChIJKaYX6qISiEcRifFH67M0Kfs,"CORSO MONCALIERI 400, TORINO, Italia",45.0239966,7.6752353,1,10133,OK,street_address
49,ROOFTOP,"Corso Vercelli, 157, 10155 Torino TO, Italy",ChIJEx69Gu1tiEcR_ND2qmbp2rw,"CORSO VERCELLI 157, TORINO, Italia",45.0984465,7.6927694,1,10155,OK,street_address
50,ROOFTOP,"Corso Vercelli, 157, 10155 Torino TO, Italy",ChIJEx69Gu1tiEcR_ND2qmbp2rw,"CORSO VERCELLI 157, TORINO, Italia",45.0984465,7.6927694,1,10155,OK,street_address
51,ROOFTOP,"Corso Vercelli, 141, 10155 Torino TO, Italy",ChIJ5RBRL-1tiEcRUMlv1hOha1I,"CORSO VERCELLI 141/8, TORINO, Italia",45.09735879999999,7.692191399999999,1,10155,OK,premise
52,ROOFTOP,"Corso Sebastopoli, 258, 10136 Torino TO, Italy",ChIJtaPYCNJsiEcR71WQC5B1mcE,"CORSO SEBASTOPOLI 258, TORINO, Italia",45.0481181,7.637331799999999,1,10136,OK,street_address
53,ROOFTOP,"Corso Sebastopoli, 258, 10136 Torino TO, Italy",ChIJtaPYCNJsiEcR71WQC5B1mcE,"CORSO SEBASTOPOLI 258, TORINO, Italia",45.0481181,7.637331799999999,1,10136,OK,street_address
54,ROOFTOP,"Via Ada Negri, 21, 10036 Settimo Torinese TO, Italy",ChIJ7zOnfgBxiEcRu-fr6nNdr8o,"VIA A. NEGRI, 21, TORINO, Italia",45.14613,7.76408,1,10036,OK,street_address
55,ROOFTOP,"Via Tofane, 28, 10141 Torino TO, Italy",ChIJY4ajCOtsiEcRnHy55LLA02E,"VIA TOFANE 28, TORINO, Italia",45.0663197,7.633762000000001,1,10141,OK,street_address
56,ROOFTOP,"Via Lussimpiccolo, 36, 10141 Torino TO, Italy",ChIJky4ycNlsiEcRj2-KMzViZUw,"VIA LUSSIMPICCOLO 36/A, TORINO, Italia",45.0558742,7.6452294,1,10141,OK,street_address
57,ROOFTOP,"Via Giuseppe Romita, 19, 10137 Torino TO, Italy",ChIJ3z9zccpsiEcRV-lDHkG0lwM,"VIA ROMITA 19, TORINO, Italia",45.0480534,7.626065400000001,1,10137,OK,premise
58,RANGE_INTERPOLATED,"Via Vittorio Bersezio, 11, 10152 Torino TO, Italy",EjJWaWEgVml0dG9yaW8gQmVyc2V6aW8sIDExLCAxMDE1MiBUb3Jpbm8gVE8sIEl0YWxpYSIaEhgKFAoSCZHdhKqFbYhHEdTtmV3kGydKEAs,"VIA BERSEZIO, 11, TORINO, Italia",45.0851778,7.693704400000001,1,10152,OK,street_address
59,ROOFTOP,"Via Beinasco, 34, 10152 Torino TO, Italy",ChIJu3gp2qJtiEcRn8nC1-Srpuo,"VIA BEINASCO 34, TORINO, Italia",45.0878337,7.678016599999999,1,10152,OK,street_address
60,APPROXIMATE,"Turin, Metropolitan City of Turin, Italy",ChIJJb4YZBJtiEcRv3ec1gP4A4k,"Non Disponibile, TORINO, Italia",45.070312,7.686856499999999,1,,OK,"locality,political"
61,ROOFTOP,"Via Giorgio Bidone, 11, 10125 Torino TO, Italy",ChIJ21cg1EVtiEcRUbhK5TQhUGc,"VIA BIDONE 11, TORINO, Italia",45.0529957,7.6772984,1,10125,OK,street_address
62,ROOFTOP,"Via Michele Antonio Vibò, 62, 10147 Torino TO, Italy",ChIJEwMmTLhtiEcROPApSw6ztUE,"VIA VIBO' 62, TORINO, Italia",45.09596,7.673769999999999,1,10147,OK,street_address
63,ROOFTOP,"Via Tofane, 28, 10141 Torino TO, Italy",ChIJY4ajCOtsiEcRnHy55LLA02E,"VIA TOFANE 28, TORINO, Italia",45.0663197,7.633762000000001,1,10141,OK,street_address
64,RANGE_INTERPOLATED,"Corso Luigi Maria d'Albertis, 22, 10141 Torino TO, Italy",EjlDb3JzbyBMdWlnaSBNYXJpYSBkJ0FsYmVydGlzLCAyMiwgMTAxNDEgVG9yaW5vIFRPLCBJdGFsaWEiGhIYChQKEglzkJbwwGyIRxHruVOvBF4M2xAW,"VIA D' ALBERTIS 22, TORINO, Italia",45.0604604,7.6303855,1,10141,OK,street_address
65,ROOFTOP,"Via Lussimpiccolo, 36, 10141 Torino TO, Italy",ChIJky4ycNlsiEcRj2-KMzViZUw,"VIA LUSSIMPICCOLO 36/A, TORINO, Italia",45.0558742,7.6452294,1,10141,OK,street_address
66,ROOFTOP,"Via Augusto Berta, 15, 10141 Torino TO, Italy",ChIJu20y_SBtiEcR4Rw-1mFy-tY,"VIA BERTA 15, TORINO, Italia",45.0588992,7.6534206,1,10141,OK,street_address
67,ROOFTOP,"Via Giovanni Randaccio, 60, 10147 Torino TO, Italy",ChIJx0KbxcFtiEcRg-Kya9Vzua8,"VIA RANDACCIO 60, TORINO, Italia",45.1003506,7.683380499999999,1,10147,OK,street_address
68,ROOFTOP,"Corso Peschiera, 380, 10139 Torino TO, Italy",ChIJg6skPo5siEcRJB4Bk9Pu64A,"CORSO PESCHIERA 380, TORINO, Italia",45.0740223,7.6259525,1,10139,OK,street_address
69,ROOFTOP,"Corso Peschiera, 380, 10139 Torino TO, Italy",ChIJg6skPo5siEcRJB4Bk9Pu64A,"CORSO PESCHIERA 380, TORINO, Italia",45.0740223,7.6259525,1,10139,OK,street_address
70,ROOFTOP,"Via Onorato Castellino, 10, 10141 Torino TO, Italy",ChIJa3jaVZNsiEcR2VNXZXYoy-0,"VIA O. CASTELLINO, 10, TORINO, Italia",45.0681187,7.6306783,1,10141,OK,premise
71,ROOFTOP,"Via Paolo Braccini, 63, 10141 Torino TO, Italy",ChIJRdKOo99siEcRco390YXK6uU,"VIA BRACCINI 63, TORINO, Italia",45.0601276,7.6493964,1,10141,OK,street_address
72,ROOFTOP,"Via Giuseppe Talucchi, 19, 10143 Torino TO, Italy",ChIJ14tNJwFtiEcRcBybd2l7V-0,"VIA TALUCCHI 19, TORINO, Italia",45.0777551,7.660380999999999,1,10143,OK,street_address
73,ROOFTOP,"Via Finalmarina, 5, 10126 Torino TO, Italy",ChIJFdEaf7cSiEcRyb2fFtUzxJ4,"VIA FINALMARINA 5, TORINO, Italia",45.0327218,7.669025100000001,1,10126,OK,premise
74,ROOFTOP,"Piazza Polonia, 94, 10126 Torino TO, Italy",ChIJe8lOALESiEcRoFBfxcicclo,"LARGO POLONIA 94, TORINO, Italia",45.03449759999999,7.6747722,1,10126,OK,premise
75,ROOFTOP,"Via Nizza, 395, 10127 Torino TO, Italy",ChIJdT1GTZMSiEcREJGaCouN_zw,"VIA NIZZA 395, TORINO, Italia",45.0182041,7.662212299999998,1,10127,OK,street_address
76,ROOFTOP,"Via Ventimiglia, 128, 10127 Torino TO, Italy",ChIJbW7MY74SiEcRhTBwChkpLv0,"VIA VENTIMIGLIA 128, TORINO, Italia",45.02544,7.668649999999999,1,10127,OK,street_address
77,ROOFTOP,"Str. di S. Mauro, 32, 10156 Torino TO, Italy",ChIJR2sEbhZyiEcR5wwvUYtrK7I,"STRADA SAN MAURO 32, TORINO, Italia",45.0997414,7.7270179,1,10156,OK,street_address
78,RANGE_INTERPOLATED,"Via Martino Anglesio, 17, 10156 Torino TO, Italy",EjFWaWEgTWFydGlubyBBbmdsZXNpbywgMTcsIDEwMTU2IFRvcmlubyBUTywgSXRhbGlhIhoSGAoUChIJLY2quSJyiEcRa58rVzUAymYQEQ,"VIA M. ANGLESIO 17, TORINO, Italia",45.1042728,7.731226299999999,1,10156,OK,street_address
79,ROOFTOP,"Strada Comunale di Bertolla, 50, 10156 Torino TO, Italy",ChIJ9xMrDDFyiEcRYo-hxYD6s0Q,"STRADA BERTOLLA 50, TORINO, Italia",45.0999014,7.7438798,1,10156,OK,street_address
80,ROOFTOP,"Via Carlo Vidua, 1, 10144 Torino TO, Italy",ChIJYXbZXaptiEcRhhcue6wLPwk,"VIA VIDUA 1, TORINO, Italia",45.08104669999999,7.660941800000001,1,10144,OK,street_address
81,ROOFTOP,"Via Carlo Capelli, 51, 10146 Torino TO, Italy",ChIJ0VdkKotsiEcRotozC1XyNYk,"VIA CAPELLI 51, TORINO, Italia",45.079577,7.6337547,1,10146,OK,street_address
82,ROOFTOP,"Corso Monte Grappa, 81, 10146 Torino TO, Italy",ChIJLS6Ea19siEcR9EDdK1U51VE,"CORSO MONTE GRAPPA 81, TORINO, Italia",45.0830834,7.6386715,1,10146,OK,street_address
83,ROOFTOP,"Via Zumaglia, 41, 10145 Torino TO, Italy",ChIJV0etwfdsiEcRV0YZL1mY01U,"VIA ZUMAGLIA 41, TORINO, Italia",45.08028729999999,7.6436971,1,10145,OK,street_address
84,ROOFTOP,"Via Ignazio Collino, 12, 10137 Torino TO, Italy",ChIJybPzFzYTiEcRAVXerWh38uQ,"VIA COLLINO 12, TORINO, Italia",45.039651,7.623141400000001,1,10137,OK,street_address
85,ROOFTOP,"Via S. Remo, 46, 10137 Torino TO, Italy",ChIJlTXtkyUTiEcR5BraMMd0Q3U,"VIA SAN REMO 46, TORINO, Italia",45.033936,7.6368373,1,10137,OK,street_address
86,ROOFTOP,"Via Cavagnolo, 35, 10156 Torino TO, Italy",ChIJ5esT9QBuiEcREVNX4Cpn41A,"VIA CAVAGNOLO, 35, TORINO, Italia",45.1160496,7.7072341,1,10156,OK,street_address
87,ROOFTOP,"Via Tommaso Vallauri, 24, 10155 Torino TO, Italy",ChIJf3L4P_BtiEcRlJWlGVXjXqE,"VIA VALLAURI 24, TORINO, Italia",45.1045934,7.698010099999999,1,10155,OK,street_address
88,ROOFTOP,"Via Cavagnolo, 35, 10156 Torino TO, Italy",ChIJ5esT9QBuiEcREVNX4Cpn41A,"VIA CAVAGNOLO 35, TORINO, Italia",45.1160496,7.7072341,1,10156,OK,street_address
89,ROOFTOP,"Via Campobasso, 11, 10155 Torino TO, Italy",ChIJk-ldIfttiEcRs7Zquo8zGy0,"VIA CAMPOBASSO, 11, TORINO, Italia",45.10837000000001,7.698720000000001,1,10155,OK,street_address
90,ROOFTOP,"Via Santhià, 25, 10154 Torino TO, Italy",ChIJz50-kY5tiEcRoSGvUzUrQds,"VIA SANTHIA, 25, TORINO, Italia",45.0909991,7.696663099999999,1,10154,OK,street_address
91,RANGE_INTERPOLATED,"Via Antonio Banfo, 32, 10155 Torino TO, Italy",Ei5WaWEgQW50b25pbyBCYW5mbywgMzIsIDEwMTU1IFRvcmlubyBUTywgSXRhbGlhIhoSGAoUChIJzcWjtpZtiEcR4GJox29aCsAQIA,"VIA BANFO, 32, TORINO, Italia",45.091546,7.6870812,1,10155,OK,street_address
92,ROOFTOP,"Corso Guglielmo Marconi, 28, 10125 Torino TO, Italy",ChIJCxBcYUNtiEcRwfvCOZKiXzU,"CORSO MARCONI 28, TORINO, Italia",45.0554692,7.681584099999999,1,10125,OK,street_address
93,RANGE_INTERPOLATED,"Via Negarville, 30, 10135 Torino TO, Italy",EitWaWEgTmVnYXJ2aWxsZSwgMzAsIDEwMTM1IFRvcmlubyBUTywgSXRhbGlhIhoSGAoUChIJb3dblG4TiEcRM-nkJht5NwMQHg,"VIA NEGARVILLE 30/6, TORINO, Italia",45.0209608,7.611720500000001,2,10135,OK,street_address
94,ROOFTOP,"Piazzetta Jona Luciano, 4, 10135 Torino TO, Italy",ChIJCSCLtG0TiEcRFXw-ntIgJXA,"PIAZZETTA JONA, 4, TORINO, Italia",45.01974,7.61408,1,10135,OK,street_address
95,ROOFTOP,"Via Santhià, 25, 10154 Torino TO, Italy",ChIJz50-kY5tiEcRoSGvUzUrQds,"VIA SANTHIA, 25, TORINO, Italia",45.0909991,7.696663099999999,1,10154,OK,street_address
96,ROOFTOP,"Via dei Mille, 15, 10123 Torino TO, Italy",ChIJE8pd92ZtiEcRTo2uKzANmHY,"VIA DEI MILLE 15, TORINO, Italia",45.06243629999999,7.688244199999999,1,10123,OK,street_address
97,ROOFTOP,"Via Giulia di Barolo, 8, 10124 Torino TO, Italy",ChIJ8bSe62JtiEcRQ8Cm6c_ISqA,"VIA GIULIA DI BAROLO 8, TORINO, Italia",45.06694,7.69597,1,10124,OK,street_address
98,ROOFTOP,"Via Don Leonardo Murialdo, 9a, 10142 Torino TO, Italy",ChIJA-M_WZ1siEcR3Ipis-gs2zY,"VIA DON MURIALDO 9/A, TORINO, Italia",45.0732974,7.610288600000001,1,10142,OK,street_address
99,ROOFTOP,"Corso Francia, 377, 10142 Torino TO, Italy",ChIJz80OsmJriEcRZlzicNMyFiQ,"C.SO FRANCIA 377, TORINO, Italia",45.0739145,7.6094761,1,10142,OK,street_address
100,ROOFTOP,"Via Chambéry, 33, 10141 Torino TO, Italy",ChIJZcMvBJpsiEcRPrOFDi0iOBM,"VIA CHAMBERY 33, TORINO, Italia",45.069156,7.620199299999999,1,10141,OK,street_address
101,ROOFTOP,"Via Rismondo Francesco, 68, 10127 Torino TO, Italy",ChIJ5WPnZfASiEcRkq357NtpTuU,"VIA RISMONDO, 68, TORINO, Italia",45.01325,7.650659999999999,1,10127,OK,street_address
102,ROOFTOP,"Via Torrazza Piemonte, 10, 10127 Torino TO, Italy",ChIJhSVE1u0SiEcR_p1EnPpmweM,"VIA TORRAZZA PIEMONTE 10, TORINO, Italia",45.01665999999999,7.656239999999999,1,10127,OK,street_address
103,ROOFTOP,"Via Berruti e Ferrero, 3, 10135 Torino TO, Italy",ChIJh4GHOd8SiEcR2cSCPwMjKVs,"VIA BERRUTI E FERRERO, 3, TORINO, Italia",45.0288733,7.6444471,1,10135,OK,street_address
104,RANGE_INTERPOLATED,"Via Pianezza, 300, 10044 Pianezza TO, Italy",EixWaWEgUGlhbmV6emEsIDMwMCwgMTAwNDQgUGlhbmV6emEgVE8sIEl0YWxpYSIbEhkKFAoSCUMuEXlSaohHES4l8ydQNkWGEKwC,"VIA PIANEZZA 300, TORINO, Italia",45.0955546,7.569125799999999,1,10044,OK,street_address
105,ROOFTOP,"Corso Benedetto Croce, 26, 10135 Torino TO, Italy",ChIJNUXCXeESiEcRKvaQNBPylYA,"CORSO B. CROCE 26, TORINO, Italia",45.020516,7.6447388,1,10135,OK,street_address
106,ROOFTOP,"Via Piacenza, 16, 10135 Torino TO, Italy",ChIJBaLqpuYSiEcRKJkwfHe0D6g,"VIA PIACENZA 16, TORINO, Italia",45.0202391,7.6469094,1,10135,OK,street_address
107,ROOFTOP,"Via Cristoforo Colombo, 36, 10129 Torino TO, Italy",ChIJhSrVIiNtiEcR2ZHiOHXzf8Q,"VIA COLOMBO 36, TORINO, Italia",45.05852609999999,7.6604661,1,10129,OK,premise
108,ROOFTOP,"Corso Svizzera, 59, 10143 Torino TO, Italy",ChIJQb1fBVZsiEcRpii9MBqtsXw,"CORSO SVIZZERA 59/61, TORINO, Italia",45.0815496,7.650537,1,10143,OK,street_address
109,ROOFTOP,"Via Gassino, 13, 10132 Torino TO, Italy",ChIJs0rafpJyiEcRVc9Sb3XnaRU,"VIA GASSINO 13, TORINO, Italia",45.066772,7.7167621,1,10132,OK,street_address
110,ROOFTOP,"Via Beato Giuseppe Cafasso, 73, 10132 Torino TO, Italy",ChIJF3FakENyiEcRG_yo0SA6QnY,"VIA BEATO CAFASSO 73, TORINO, Italia",45.0878567,7.730312199999999,1,10132,OK,street_address
111,ROOFTOP,"Corso Bramante, 53, 10126 Torino TO, Italy",ChIJ57ngkEptiEcRp-n7qYwUDyo,"STRADA MONGRENO 53, TORINO, Italia",45.0434917,7.6697049,1,10126,OK,premise
112,ROOFTOP,"Via Cristoforo Colombo, 36, 10129 Torino TO, Italy",ChIJhSrVIiNtiEcR2ZHiOHXzf8Q,"VIA COLOMBO 36, TORINO, Italia",45.05852609999999,7.6604661,1,10129,OK,premise
113,ROOFTOP,"Via Gian Domenico Cassini, 98, 10129 Torino TO, Italy",ChIJZTd-5S9tiEcR2YtSaX5aZoQ,"VIA CASSINI 98, TORINO, Italia",45.0513249,7.6591871,1,10129,OK,street_address
114,ROOFTOP,"Via Massena, 39, 10128 Torino TO, Italy",ChIJuRyo6j9tiEcRacJWHu6cJck,"VIA MASSENA 39, TORINO, Italia",45.0591902,7.6716564,1,10128,OK,street_address
115,ROOFTOP,"Via Luigi Ambrosini, 1, 10151 Torino TO, Italy",ChIJ7fTGYD5siEcRoHDuNBIwyxU,"VIA AMBROSINI 1, TORINO, Italia",45.1036536,7.643127499999999,1,10151,OK,premise
116,ROOFTOP,"Via Luigi Ambrosini, 1, 10151 Torino TO, Italy",ChIJ7fTGYD5siEcRoHDuNBIwyxU,"VIA AMBROSINI 1, TORINO, Italia",45.1036536,7.643127499999999,1,10151,OK,premise
117,ROOFTOP,"Corso Toscana, 88, 10149 Torino TO, Italy",ChIJ72oXuUlsiEcRSS1DoEzLnmA,"CORSO TOSCANA 88, TORINO, Italia",45.09801,7.653849999999998,1,10149,OK,street_address
118,ROOFTOP,"Via Santorre di Santarosa, 11, 10131 Torino TO, Italy",ChIJpxVhsZ5yiEcR8u5iMQpiZLM,"VIA SANTORRE DI SANTAROSA,11, TORINO, Italia",45.06248009999999,7.7015723,1,10131,OK,street_address
119,ROOFTOP,"Via Luciano Manara, 10, 10133 Torino TO, Italy",ChIJoRAZcF9tiEcR3XsSwEIEX1c,"VIA MANARA 10, TORINO, Italia",45.0561319,7.6938118,1,10133,OK,street_address
120,ROOFTOP,"Str. S. Vincenzo, 44, 10131 Torino TO, Italy",ChIJOz9cFchyiEcRHu3N3UYvuW0,"STRADA SAN VINCENZO 44, TORINO, Italia",45.0470677,7.7157861,1,10131,OK,street_address
121,ROOFTOP,"Via Carlo Capelli, 51, 10146 Torino TO, Italy",ChIJ0VdkKotsiEcRotozC1XyNYk,"VIA CAPELLI 51, TORINO, Italia",45.079577,7.6337547,1,10146,OK,street_address
122,ROOFTOP,"Via S. Sebastiano Po, 6, 10132 Torino TO, Italy",ChIJp6uo-fNyiEcRGEpnnOFfG6o,"VIA SAN SEBASTIANO PO, 6, TORINO, Italia",45.07083,7.725989999999999,1,10132,OK,street_address
123,ROOFTOP,"Via degli Abeti, 13, 10156 Torino TO, Italy",ChIJeYjX1R5uiEcRzoZ9EYUPDe0,"VIA ABETI 13, TORINO, Italia",45.13076,7.70958,1,10156,OK,street_address
124,ROOFTOP,"Via dei Pioppi, 45, 10156 Torino TO, Italy",ChIJEWa9mB1uiEcR7idQrrMgQzs,"VIA DEI PIOPPI 45, TORINO, Italia",45.12635,7.71229,1,10156,OK,street_address
125,ROOFTOP,"Via Lemie, 48, 10149 Torino TO, Italy",ChIJPS2-gbZtiEcR0Rxc2FWQBLQ,"VIA LEMIE, 48, TORINO, Italia",45.0961219,7.666371,1,10149,OK,street_address
126,ROOFTOP,"Via Cardinale Guglielmo Massaia, 113, 10147 Torino TO, Italy",ChIJ-dIZV8ltiEcRnDluaKN5mpI,"VIA CARDINAL MASSAIA 113, TORINO, Italia",45.1026208,7.668355200000001,1,10147,OK,street_address
127,ROOFTOP,"Via Fossano, 16, 10144 Torino TO, Italy",ChIJE5H6b6xtiEcRHocMrvdZ2To,"VIA FOSSANO 16, TORINO, Italia",45.085633,7.660862099999999,1,10144,OK,street_address
128,ROOFTOP,"Via Filippo Acciarini, 20, 10137 Torino TO, Italy",ChIJY1BVlysTiEcRN4qVH_k-sNs,"VIA ACCIARINI 20, TORINO, Italia",45.0408812,7.641442899999999,1,10137,OK,premise
129,ROOFTOP,"Via Filippo Acciarini, 20, 10137 Torino TO, Italy",ChIJY1BVlysTiEcRN4qVH_k-sNs,"VIA ACCIARINI 20, TORINO, Italia",45.0408812,7.641442899999999,1,10137,OK,premise
130,ROOFTOP,"Corso Regio Parco, 19, 10152 Torino TO, Italy",ChIJ90Ccs3htiEcRc8BQYOlmT24,"CORSO REGIO PARCO 19, TORINO, Italia",45.0771027,7.6945139,1,10152,OK,street_address
131,ROOFTOP,"Corso Lombardia, 98, 10151 Torino TO, Italy",ChIJCXLPZkZsiEcRJkSr0hMMO1s,"CORSO LOMBARDIA 98, TORINO, Italia",45.0960314,7.6472685,1,10151,OK,street_address
132,ROOFTOP,"Via S. Marino, 107, 10137 Torino TO, Italy",ChIJG2bPIiwTiEcRwsOocieY71s,"VIA SAN MARINO 107, TORINO, Italia",45.0399077,7.638562899999999,1,10137,OK,street_address
133,ROOFTOP,"Corso Benedetto Croce, 26, 10135 Torino TO, Italy",ChIJNUXCXeESiEcRKvaQNBPylYA,"CORSO B. CROCE 26, TORINO, Italia",45.020516,7.6447388,1,10135,OK,street_address
134,RANGE_INTERPOLATED,"Via Pietro Thouar, 2, 10149 Torino TO, Italy",Ei1WaWEgUGlldHJvIFRob3VhciwgMiwgMTAxNDkgVG9yaW5vIFRPLCBJdGFsaWEiGhIYChQKEgknx8SzTWyIRxFcaEPePhP6UhAC,"VIA THOUAR 2, TORINO, Italia",45.0915936,7.655966499999999,1,10149,OK,street_address
135,ROOFTOP,"Via delle Verbene, 6, 10151 Torino TO, Italy",ChIJ57CDMhJsiEcRxP4d-X81D3g,"VIA DELLE VERBENE 6, TORINO, Italia",45.10430729999999,7.6339776,1,10151,OK,street_address
136,ROOFTOP,"Viale dei Mughetti, 29, 10151 Torino TO, Italy",ChIJDU5yaw1siEcRmSipNbwN808,"VIALE MUGHETTI 29/1, TORINO, Italia",45.10252999999999,7.627750000000001,1,10151,OK,street_address
137,ROOFTOP,"Via Lemie, 48, 10149 Torino TO, Italy",ChIJPS2-gbZtiEcR0Rxc2FWQBLQ,"VIA LEMIE, 48, TORINO, Italia",45.0961219,7.666371,1,10149,OK,street_address
138,ROOFTOP,"Corso Racconigi, 31, 10139 Torino TO, Italy",ChIJ6QC7yuRsiEcR5XNXhESCfQ8,"CORSO RACCONIGI 31, TORINO, Italia",45.07158760000001,7.647334,1,10139,OK,street_address
139,ROOFTOP,"Via Luserna di Rorà, 14, 10139 Torino TO, Italy",ChIJ8zST-eNsiEcRmv36w6mZxGk,"VIA LUSERNA, 14, TORINO, Italia",45.0674125,7.6477659,1,10139,OK,street_address
140,ROOFTOP,"Via Giuditta Sidoli, 10, 10135 Torino TO, Italy",ChIJw4HZjt4SiEcRh1opPKRdNjI,"VIA SIDOLI,10, TORINO, Italia",45.027593,7.6466232,1,10135,OK,street_address
141,ROOFTOP,"Via Flecchia Giovanni, 10, 10127 Torino TO, Italy",ChIJVV_sNOgSiEcRvFWSZd3csp8,"VIA FLECCHIA,10, TORINO, Italia",45.02321,7.65499,1,10127,OK,street_address
142,ROOFTOP,"Via Pietro Palmieri, 58, 10138 Torino TO, Italy",ChIJgbRiXgNtiEcRQO0DPwFJobk,"VIA PALMIERI 58, TORINO, Italia",45.0718366,7.659515600000001,1,10138,OK,street_address
143,ROOFTOP,"Str. Castello di Mirafiori, 45, 10135 Torino TO, Italy",ChIJM9uD1gUTiEcR-J42LXfL0eM,"STRADA CASTELLO MIRAFIORI 45, TORINO, Italia",45.01198,7.62946,1,10135,OK,street_address
144,ROOFTOP,"Via Vezzolano, 20, 10153 Torino TO, Italy",ChIJfd7EtfRyiEcRXwN3_2SYjXs,"VIA VEZZOLANO,  20, TORINO, Italia",45.07229479999999,7.721447400000001,1,10153,OK,street_address
145,ROOFTOP,"Via Michele Buniva, 19, 10124 Torino TO, Italy",ChIJk_kGh4JyiEcRvBOFS4Ktths,"VIA BUNIVA 19, TORINO, Italia",45.0703719,7.698999099999999,1,10124,OK,street_address
146,ROOFTOP,"Via Bettino Ricasoli, 30, 10153 Torino TO, Italy",ChIJc0UlBYRyiEcRtenpTOgX8MU,"VIA RICASOLI 30, TORINO, Italia",45.0719777,7.705285699999999,1,10153,OK,street_address
147,ROOFTOP,"Via Carlo Lorenzini, 4, 10147 Torino TO, Italy",ChIJnVHmJ8dtiEcRCiyeYNHcMjs,"VIA LORENZINI 4, TORINO, Italia",45.0999868,7.677997799999999,1,10147,OK,premise
148,ROOFTOP,"Via Vincenzo Lancia, 140, 10141 Torino TO, Italy",ChIJrZom6r9siEcRD4aiCBlBYA8,"VIA        LANCIA              140, TORINO, Italia",45.0628398,7.628413699999999,1,10141,OK,street_address
149,ROOFTOP,"Via Raimondo Montecuccoli, 12, 10121 Torino TO, Italy",ChIJoRpz_A1tiEcR67IlbrJX1M8,"VIA MONTECUCCOLI, 12, TORINO, Italia",45.070437,7.670993500000001,1,10121,OK,premise
150,ROOFTOP,"Via Alassio, 20, 10126 Torino TO, Italy",ChIJQZCvnrUSiEcRoLRs2n3NT-8,"VIA ALASSIO 20, TORINO, Italia",45.03936909999999,7.668836700000001,1,10126,OK,street_address
151,ROOFTOP,"Corso Novara, 26, 10152 Torino TO, Italy",ChIJE5IfCpBtiEcRPLCUfAeCY_4,"CORSO      NOVARA              26, TORINO, Italia",45.0869563,7.691585199999999,1,10152,OK,street_address
152,ROOFTOP,"Corso Giulio Cesare, 26, 10152 Torino TO, Italy",ChIJQZnvf5ttiEcRjwsINFPIAgU,"CORSO GIULIO CESARE 26, TORINO, Italia",45.08301789999999,7.688000499999999,1,10152,OK,street_address
153,ROOFTOP,"Corso Unione Sovietica, 490, 10135 Torino TO, Italy",ChIJ9WN9WxoTiEcRdeBOlrX82rA,"CORSO UNIONE SOVIETICA,490, TORINO, Italia",45.0192373,7.6306929,1,10135,OK,street_address
154,ROOFTOP,"Via Lavagna, 8, 10126 Torino TO, Italy",ChIJB8gddLcSiEcRNbK2o3wkG-c,"VIA LAVAGNA, 8, TORINO, Italia",45.03348,7.669299999999999,1,10126,OK,street_address
155,ROOFTOP,"Via Paolo della Cella, 3, 10148 Torino TO, Italy",ChIJlYU8iMRtiEcRmqcqee_T2dM,"VIA P. DELLA CELLA, 3, TORINO, Italia",45.1048777,7.6786276,1,10148,OK,street_address
156,ROOFTOP,"Corso Novara, 26, 10152 Torino TO, Italy",ChIJE5IfCpBtiEcRPLCUfAeCY_4,"CORSO  NOVARA   26, TORINO, Italia",45.0869563,7.691585199999999,1,10152,OK,street_address
157,ROOFTOP,"Corso S. Maurizio, 8, 10124 Torino TO, Italy",ChIJTQwThXttiEcRrvXIKUhkYPQ,"CORSO SAN MAURIZIO,8, TORINO, Italia",45.0710607,7.692885199999999,1,10124,OK,street_address
158,ROOFTOP,"Via Raimondo Montecuccoli, 12, 10121 Torino TO, Italy",ChIJoRpz_A1tiEcR67IlbrJX1M8,"VIA MONTECUCCOLI, 12, TORINO, Italia",45.070437,7.670993500000001,1,10121,OK,premise
159,ROOFTOP,"Via Antonio Meucci, 9, 10121 Torino TO, Italy",ChIJW5b-Xw1tiEcRDUQpebbMJ98,"VIA MEUCCI,9, TORINO, Italia",45.0698037,7.674631000000001,1,10121,OK,street_address
160,ROOFTOP,"Via Giorgio Bidone, 11, 10125 Torino TO, Italy",ChIJ21cg1EVtiEcRUbhK5TQhUGc,"VIA G.BIDONE 11, TORINO, Italia",45.0529957,7.6772984,1,10125,OK,street_address
161,ROOFTOP,"Via Pietro Frattini, 11, 10137 Torino TO, Italy",ChIJfZsNuTATiEcRPRUjnWId8nw,"VIA FRATTINI 11, TORINO, Italia",45.0360521,7.628849,1,10137,OK,street_address
162,ROOFTOP,"Via Niccolò Paganini, 22, 10154 Torino TO, Italy",ChIJw1EFOHhyiEcRkpuLz5ofoV0,"VIA PAGANINI,22, TORINO, Italia",45.08540929999999,7.704685799999999,1,10154,OK,street_address
163,ROOFTOP,"Via Foglizzo, 15, 10149 Torino TO, Italy",ChIJ_VMrLkZsiEcRpc7UlUEazzY,"VIA        FOGLIZZO            15, TORINO, Italia",45.0964797,7.648635700000001,1,10149,OK,street_address
164,ROOFTOP,"Via Amilcare Ponchielli, 56, 10154 Torino TO, Italy",ChIJU0U8znlyiEcR47guApibX9s,"VIA PONCHIELLI,56, TORINO, Italia",45.0857879,7.7058793,1,10154,OK,street_address
165,ROOFTOP,"Via Giovanni Pacini, 28, 10154 Torino TO, Italy",ChIJAdeLNIZtiEcRMXYO1oUX21U,"VIA PACINI,28, TORINO, Italia",45.0857013,7.6994071,1,10154,OK,street_address
166,ROOFTOP,"Via Tolmino, 40, 10141 Torino TO, Italy",ChIJZ0nPWdlsiEcRiJwWxEuakeQ,"VIA TOLMINO, 40, TORINO, Italia",45.05706,7.64491,1,10141,OK,street_address
167,ROOFTOP,"Via Paolo Gaidano, 126, 10137 Torino TO, Italy",ChIJSzZ2WkoTiEcRgzagU_EdgEY,"VIA GAIDANO 126, TORINO, Italia",45.04241649999999,7.6219723,1,10137,OK,street_address
168,ROOFTOP,"Via Vincenzo Lancia, 140, 10141 Torino TO, Italy",ChIJrZom6r9siEcRD4aiCBlBYA8,"VIA   LANCIA   140, TORINO, Italia",45.0628398,7.628413699999999,1,10141,OK,street_address
169,ROOFTOP,"Via Tolmino, 40, 10141 Torino TO, Italy",ChIJZ0nPWdlsiEcRiJwWxEuakeQ,"VIA TOLMINO, 40, TORINO, Italia",45.05706,7.64491,1,10141,OK,street_address
170,ROOFTOP,"Via Messina, 14, 10153 Torino TO, Italy",ChIJ-ZhwNH9tiEcRUJo71AXXXj4,"VIA MESSINA 14, TORINO, Italia",45.07626519999999,7.6947427,1,10153,OK,street_address
171,ROOFTOP,"Via Antonio Cecchi, 18, 10152 Torino TO, Italy",ChIJdwejUJhtiEcRRJyOGqnyXW4,"VIA CECCHI, 18, TORINO, Italia",45.0860264,7.6825218,1,10152,OK,premise
172,ROOFTOP,"Corso Venezia, 29, 10147 Torino TO, Italy",ChIJuUX8QL5tiEcRgJbDNqnMiyA,"CORSO  VENEZIA 29, TORINO, Italia",45.0942245,7.6807889,1,10147,OK,street_address
173,ROOFTOP,"Corso Caio Plinio, 2, 10127 Torino TO, Italy",ChIJgSYSGsMSiEcRnieotBbd1ag,"CORSO CAIO PLINIO,2, TORINO, Italia",45.02655410000001,7.6549516,1,10127,OK,street_address
174,ROOFTOP,"Via Figlie dei Militari, 25, 10131 Torino TO, Italy",ChIJ2w7h7JByiEcRzICSHSN1PMA,"VIA FIGLIE MILITARI 25, TORINO, Italia",45.0643227,7.7096435,1,10131,OK,street_address
175,ROOFTOP,"Corso Tortona, 41, 10153 Torino TO, Italy",ChIJv0FwnIZyiEcRccDK-53Gg24,"CORSO TORTONA N 41, TORINO, Italia",45.0725632,7.706506500000001,1,10153,OK,street_address
176,ROOFTOP,"Via Torrazza Piemonte, 10, 10127 Torino TO, Italy",ChIJhSVE1u0SiEcR_p1EnPpmweM,"VIA TORRAZZA P.TE N. 10, TORINO, Italia",45.01665999999999,7.656239999999999,1,10127,OK,street_address
177,ROOFTOP,"Via Luigi Palma di Cesnola, 29, 10127 Torino TO, Italy",ChIJm6zKOOgSiEcR9fEN9j4FFvU,"VIA PALMA DI CESNOLA 29, TORINO, Italia",45.0231375,7.6540422,1,10127,OK,street_address
178,ROOFTOP,"Via Duchessa Jolanda, 29, 10138 Torino TO, Italy",ChIJU0NvKAJtiEcRyA79vlKvEnE,"VIA DUCHESSA JOLANDA 29, TORINO, Italia",45.0755363,7.657372000000001,1,10138,OK,premise
179,ROOFTOP,"Via Luserna di Rorà, 14, 10139 Torino TO, Italy",ChIJ8zST-eNsiEcRmv36w6mZxGk,"VIA LUSERNA DI RORA', 14, TORINO, Italia",45.0674125,7.6477659,1,10139,OK,street_address
180,RANGE_INTERPOLATED,"Via Casteldelfino, 24, 10147 Torino TO, Italy",Ei5WaWEgQ2FzdGVsZGVsZmlubywgMjQsIDEwMTQ3IFRvcmlubyBUTywgSXRhbGlhIhoSGAoUChIJI5nCiMhtiEcRhIsdA4jBgWwQGA,"VIA        CASTELDELFINO       24, TORINO, Italia",45.1004777,7.6726292,1,10147,OK,street_address
181,ROOFTOP,"Via Tunisi, 102, 10134 Torino TO, Italy",ChIJHVJD59ESiEcRaBXlPDb0BxU,"VIA TUNISI 102, TORINO, Italia",45.0366049,7.6551939,1,10134,OK,street_address
182,ROOFTOP,"Via Bettino Ricasoli, 15, 10153 Torino TO, Italy",ChIJQyGJUIRyiEcRRs1wnoUbipY,"VIA RICASOLI 15, TORINO, Italia",45.0704283,7.7062366,1,10153,OK,street_address
183,ROOFTOP,"Via le Chiuse, 80, 10144 Torino TO, Italy",ChIJ3XqAY6ptiEcRQlHEt7Cb0pk,"VIA        LE CHIUSE           80, TORINO, Italia",45.0810311,7.659809600000001,1,10144,OK,street_address
184,ROOFTOP,"Via Bardassano, 5, 10132 Torino TO, Italy",ChIJE14xLZByiEcRX2FAArLjclk,"VIA  BARDASSANO 5, TORINO, Italia",45.067017,7.711492999999999,1,10132,OK,street_address
185,ROOFTOP,"Via Giuseppe Giacosa, 25, 10125 Torino TO, Italy",ChIJvS1OpERtiEcRbQ2oeErb8To,"VIA        GIACOSA             25, TORINO, Italia",45.0547891,7.6822158,1,10125,OK,street_address
186,ROOFTOP,"Via Leo Lanfranco, 2, 10137 Torino TO, Italy",ChIJGcQChioTiEcR6OxmiYkERl8,"VIA L. LANFRANCO 2 (EX V. FILADELFIA), TORINO, Italia",45.0416342,7.644998500000001,1,10137,OK,"establishment,point_of_interest,school"
187,ROOFTOP,"Via Giacomo Balla, 27, 10137 Torino TO, Italy",ChIJ46fGd7VsiEcR_8ls_2opy8E,"VIA  BALLA  27, TORINO, Italia",45.0477742,7.6254047,1,10137,OK,street_address
188,ROOFTOP,"Piazza Giacomini Carlo, 24, 10126 Torino TO, Italy",ChIJcfSeE7cSiEcR4z27u_2ySmo,"PIAZZA GIACOMINI 24, TORINO, Italia",45.03387,7.67009,1,10126,OK,street_address
189,ROOFTOP,"Piazzeta Luciano Jona, 7, 10135 Torino TO, Italy",ChIJp9FerW0TiEcRJTXE6YFCsc8,"PIAZZETTA  L. JONA              5, TORINO, Italia",45.0197904,7.6145359,1,10135,OK,"establishment,point_of_interest,school"
190,ROOFTOP,"Via Domodossola, 54, 10145 Torino TO, Italy",ChIJDTuCzPdsiEcR5qaPgDKOzKU,"VIA DOMODOSSOLA 54, TORINO, Italia",45.0803407,7.6428717,1,10145,OK,street_address
191,ROOFTOP,"Via Bologna, 153, 10154 Torino TO, Italy",ChIJF1R7bXdyiEcRrcFNx3-U6gM,"VIA BOLOGNA 153, TORINO, Italia",45.0880437,7.706240599999999,1,10154,OK,street_address
192,RANGE_INTERPOLATED,"Via Pianezza, 300, 10044 Pianezza TO, Italy",EixWaWEgUGlhbmV6emEsIDMwMCwgMTAwNDQgUGlhbmV6emEgVE8sIEl0YWxpYSIbEhkKFAoSCUMuEXlSaohHES4l8ydQNkWGEKwC,"VIA PIANEZZA, 300, TORINO, Italia",45.0955546,7.569125799999999,1,10044,OK,street_address
193,ROOFTOP,"Str. di S. Mauro, 24, 10156 Torino TO, Italy",ChIJfy5-fRZyiEcRWgNMCuLUcZ4,"STRADA     S. MAURO            24, TORINO, Italia",45.09965589999999,7.725975099999999,1,10156,OK,street_address
194,ROOFTOP,"Via degli Abeti, 13, 10156 Torino TO, Italy",ChIJeYjX1R5uiEcRzoZ9EYUPDe0,"VIA        DEGLI ABETI         13, TORINO, Italia",45.13076,7.70958,1,10156,OK,street_address
195,ROOFTOP,"Via delle Magnolie, 9, 10151 Torino TO, Italy",ChIJieGAQRNsiEcRLLv3Z8CZ8wM,"VIA      MAGNOGLIE              9, TORINO, Italia",45.10179,7.63333,1,10151,OK,street_address
196,ROOFTOP,"Via Ottavio Revel, 8, 10121 Torino TO, Italy",ChIJUT5X9BFtiEcR36v9DU8pOK4,"VIA REVEL                       8, TORINO, Italia",45.0690856,7.670025399999999,1,10121,OK,street_address
197,ROOFTOP,"Via Giacinto Pacchiotti, 80, 10146 Torino TO, Italy",ChIJl6jDRIlsiEcR9MzmlRaYC6k,"VIA PACCHIOTTI                 80, TORINO, Italia",45.0783885,7.627599999999999,1,10146,OK,street_address
198,ROOFTOP,"Via Baltimora, 110, 10137 Torino TO, Italy",ChIJy8j5_NJsiEcRZKh3FRU6f5k,"VIA        BALTIMORA           110, TORINO, Italia",45.04593,7.63871,1,10137,OK,street_address
199,ROOFTOP,"Via Tofane, 22, 10141 Torino TO, Italy",ChIJnzMTtutsiEcRoiubGKWSL1g,"VIA        TOFANE              22, TORINO, Italia",45.0659141,7.6344796,1,10141,OK,street_address
200,ROOFTOP,"Corso Vercelli, 141, 10155 Torino TO, Italy",ChIJ5RBRL-1tiEcRUMlv1hOha1I,"C.SO VERCELLI, 141/6, TORINO, Italia",45.09735879999999,7.692191399999999,1,10155,OK,premise
201,ROOFTOP,"Via Bligny, 1, 10122 Torino TO, Italy",ChIJxagnXgttiEcRsJVVL3dUToU,"VIA        BLIGNY              1 BIS, TORINO, Italia",45.0749127,7.6759051,1,10122,OK,street_address
202,ROOFTOP,"Corso Alessandro Tassoni, 15, 10143 Torino TO, Italy",ChIJh1MB1gFtiEcRUfc88WcpPjI,"CORSO TASSONI, 15, TORINO, Italia",45.07778560000001,7.655862099999999,1,10143,OK,street_address
203,ROOFTOP,"Via Giuseppe Piazzi, 57, 10129 Torino TO, Italy",ChIJ_XN5iy9tiEcRzjvGW32njeA,"VIA PIAZZI 57, TORINO, Italia",45.0518284,7.658464500000001,1,10129,OK,street_address
204,ROOFTOP,"Via Gerolamo Tiraboschi, 33, 10149 Torino TO, Italy",ChIJnbWe7kpsiEcRt9uTyjjCi7Q,"VIA        TIRABOSCHI          33, TORINO, Italia",45.0976033,7.659627299999999,1,10149,OK,street_address
205,ROOFTOP,"Via Santhià, 76, 10154 Torino TO, Italy",ChIJb0g2g4xtiEcRQloLsS4Nuhw,"VIA        SANTHIA'            76, TORINO, Italia",45.09453,7.69918,1,10154,OK,street_address
206,ROOFTOP,"Via Mentana, 14, 10133 Torino TO, Italy",ChIJG9P4RF9tiEcRHtXEwtcT5_I,"VIA        MENTANA             14, TORINO, Italia",45.05531930000001,7.6934845,1,10133,OK,street_address
207,ROOFTOP,"Corso Benedetto Croce, 17, 10135 Torino TO, Italy",ChIJoRA3N-ESiEcR0QQC1abT6B0,"CORSO B. CROCE, 17, TORINO, Italia",45.0210742,7.6471248,1,10135,OK,street_address
208,RANGE_INTERPOLATED,"Via Germonio, 12, 10095 [no name] TO, Italy",EixWaWEgR2VybW9uaW8sIDEyLCAxMDA5NSBbbm8gbmFtZV0gVE8sIEl0YWxpYSIaEhgKFAoSCWEbMAKfbIhHEZGbvPOTOnGtEAw,"VIA GERMONIO                   12, TORINO, Italia",45.066855,7.6117351,1,10095,OK,street_address
209,ROOFTOP,"Via Asigliano Vercellese, 10, 10153 Torino TO, Italy",ChIJZ3lCYvVyiEcR58WuP0DC69o,"VIA ASIGLIANO VERCELLESE 10, TORINO, Italia",45.07576,7.724150000000001,1,10153,OK,street_address
210,ROOFTOP,"Via Sant'Ottavio, 7, 10124 Torino TO, Italy",ChIJt5wuQGNtiEcRudH961H74QI,"VIA SANT'OTTAVIO 7, TORINO, Italia",45.0674455,7.6933495,1,10124,OK,street_address
211,ROOFTOP,"Via Giovanni Pacini, 28, 10154 Torino TO, Italy",ChIJAdeLNIZtiEcRMXYO1oUX21U,"VIA PACINI,28, TORINO, Italia",45.0857013,7.6994071,1,10154,OK,street_address
212,ROOFTOP,"Via Filippo Juvarra, 14, 10122 Torino TO, Italy",ChIJ2bmhBAxtiEcRcCLaRwfjVqc,"VIA JUVARRA 14, TORINO, Italia",45.0741456,7.671962499999999,1,10122,OK,street_address
213,ROOFTOP,"Piazza Polonia, 94, 10126 Torino TO, Italy",ChIJe8lOALESiEcRoFBfxcicclo,"PIAZZA POLONIA                 94, TORINO, Italia",45.03449759999999,7.6747722,1,10126,OK,premise
214,ROOFTOP,"Via Bianzè, 7, 10143 Torino TO, Italy",ChIJu2O4zP9siEcRxILzVBTiz4o,"VIA        BIANZE'             7, TORINO, Italia",45.0780131,7.6547966,1,10143,OK,street_address
215,ROOFTOP,"Piazza Giacomini Carlo, 24, 10126 Torino TO, Italy",ChIJcfSeE7cSiEcR4z27u_2ySmo,"PIAZZA GIACOMINI 24, TORINO, Italia",45.03387,7.67009,1,10126,OK,street_address
216,ROOFTOP,"Via Valenza, 71, 10127 Torino TO, Italy",ChIJTyUaFb4SiEcRh6WNDmVp1_I,"VIA        VALENZA             71, TORINO, Italia",45.0245358,7.6678185,1,10127,OK,street_address
217,ROOFTOP,"Via Sant'Ottavio, 9, 10124 Torino TO, Italy",ChIJLf5XP2NtiEcRD1To6864q8Y,"VIA S. OTTAVIO 9, TORINO, Italia",45.0675953,7.693551899999998,1,10124,OK,street_address
218,ROOFTOP,"Corso Dante, 80, 10126 Torino TO, Italy",ChIJM5ZUhE5tiEcR_cJRSkfJCqg,"CORSO  DANTE, 80, TORINO, Italia",45.0463676,7.677889899999999,1,10126,OK,street_address
219,ROOFTOP,"Via Bologna, 183, 10154 Torino TO, Italy",ChIJb8WEPXFyiEcRygCAsTqs1Uc,"VIA BOLOGNA, N. 183, TORINO, Italia",45.0896469,7.7100573,1,10154,OK,street_address
220,ROOFTOP,"Via Pietro Frattini, 11, 10137 Torino TO, Italy",ChIJfZsNuTATiEcRPRUjnWId8nw,"VIA FRATTINI, 11, TORINO, Italia",45.0360521,7.628849,1,10137,OK,street_address
221,ROOFTOP,"Via Tommaso Valperga Caluso, 12, 10125 Torino TO, Italy",ChIJTe3gK0RtiEcR-soYL3BnluQ,"VIA VALPERGA CALUSO 12, TORINO, Italia",45.05344669999999,7.677446199999999,1,10125,OK,street_address
222,ROOFTOP,"Via Giuseppe Parini, 8, 10121 Torino TO, Italy",ChIJfyHeoGxtiEcRoPEtsIj7QTs,"VIA PARINI,8, TORINO, Italia",45.064962,7.6757738,1,10121,OK,street_address
223,ROOFTOP,"Via Tommaso Valperga Caluso, 12, 10125 Torino TO, Italy",ChIJTe3gK0RtiEcR-soYL3BnluQ,"VIA VALPERGA CALUSO 12, TORINO, Italia",45.05344669999999,7.677446199999999,1,10125,OK,street_address
224,ROOFTOP,"Via Bologna, 183, 10154 Torino TO, Italy",ChIJb8WEPXFyiEcRygCAsTqs1Uc,"VIA BOLOGNA 183, TORINO, Italia",45.0896469,7.7100573,1,10154,OK,street_address
225,ROOFTOP,"Via Giovanni Tommaso Terraneo, 1, 10151 Torino TO, Italy",ChIJew--0kBsiEcRibPXjQAB-CQ,"VIA TERRANEO 1, TORINO, Italia",45.0981807,7.644681999999999,1,10151,OK,street_address
226,ROOFTOP,"Corso Lucio Quinzio Cincinnato, 121, 10151 Torino TO, Italy",ChIJMcSoM0BsiEcRV-bOo4A6fbo,"CORSO CINCINNATO 121, TORINO, Italia",45.0981174,7.6398882,1,10151,OK,street_address
227,ROOFTOP,"Via La Loggia, 51, 10134 Torino TO, Italy",ChIJkbae3doSiEcRpZDZsvVbNgs,"LARGO LA LOGGIA 51, TORINO, Italia",45.0317467,7.653292099999999,1,10134,OK,street_address
228,ROOFTOP,"Via Bianzè, 7, 10143 Torino TO, Italy",ChIJu2O4zP9siEcRxILzVBTiz4o,"VIA        BIANZE'             7, TORINO, Italia",45.0780131,7.6547966,1,10143,OK,street_address
229,ROOFTOP,"Via Finalmarina, 5, 10126 Torino TO, Italy",ChIJFdEaf7cSiEcRyb2fFtUzxJ4,"VIA FINALMARINA 5, TORINO, Italia",45.0327218,7.669025100000001,1,10126,OK,premise
230,ROOFTOP,"Corso Regina Margherita, 43, 10124 Torino TO, Italy",ChIJGdTsQoJyiEcR8uCw_CwdhiY,"CORSO REGINA MARGHERITA, 43, TORINO, Italia",45.0711677,7.699697899999999,1,10124,OK,street_address
231,ROOFTOP,"Via Daniele Manin, 22, 10153 Torino TO, Italy",ChIJP84QooZyiEcRu-Adwavn9YE,"VIA MANIN, 22, TORINO, Italia",45.0726997,7.706031500000001,1,10153,OK,street_address
232,ROOFTOP,"Corso Ciriè, 3, 10152 Torino TO, Italy",ChIJF761-aNtiEcRR785cjofuxY,"C.SO CIRIE' 3/A, TORINO, Italia",45.084409,7.674572,1,10152,OK,street_address
233,ROOFTOP,"Via Goffredo Mameli, 18, 10152 Torino TO, Italy",ChIJm0c4D55tiEcRIXnt6c00lF8,"VIA MAMELI, 18, TORINO, Italia",45.0790977,7.683770999999999,1,10152,OK,street_address
234,ROOFTOP,"Via Orvieto, 1, 10149 Torino TO, Italy",ChIJGZakh7BtiEcRq-eBxmOcQ60,"V.ORVIETO  1 INTERNO 5-7-9, TORINO, Italia",45.0911576,7.6702887,1,10149,OK,street_address
235,ROOFTOP,"Via Pozzo Str., 12, 10139 Torino TO, Italy",ChIJdTIclY1siEcRYDq0PTT6ZM4,"VIA POZZO STRADA  12/1, TORINO, Italia",45.0739293,7.6284269,1,10139,OK,street_address
236,ROOFTOP,"Via Carolina Invernizio, 21, 10127 Torino TO, Italy",ChIJcR8JrekSiEcRpiC4kuc-Z6Y,"VIA CAROLINA INVERNIZIO,21, TORINO, Italia",45.0223009,7.6550184,1,10127,OK,street_address
237,ROOFTOP,"Via Podgora, 28, 10135 Torino TO, Italy",ChIJBcb2o98SiEcRCR4Lem_Wi-c,"VIA PODGORA,28, TORINO, Italia",45.0268495,7.643915900000001,1,10135,OK,street_address
238,ROOFTOP,"Via Monte Corno, 21, 10127 Torino TO, Italy",ChIJYeWEwMISiEcRbO2-nKVZvIQ,"VIA MONTECORNO,21, TORINO, Italia",45.0253543,7.6543835,1,10127,OK,street_address
239,ROOFTOP,"Via Giacinto Collegno, 73, 10138 Torino TO, Italy",ChIJB6VeEwNtiEcRGxyobxdUNdE,"VIA COLLEGNO 73, TORINO, Italia",45.0722288,7.6585731,1,10138,OK,street_address
240,RANGE_INTERPOLATED,"Via Goffredo Casalis, 54, 10138 Torino TO, Italy",EjFWaWEgR29mZnJlZG8gQ2FzYWxpcywgNTQsIDEwMTM4IFRvcmlubyBUTywgSXRhbGlhIhoSGAoUChIJvw0czwNtiEcRcFPP-EhFR-4QNg,"VIA CASALIS 54, TORINO, Italia",45.0752804,7.6584736,1,10138,OK,street_address
241,ROOFTOP,"Via Bardonecchia, 36, 10139 Torino TO, Italy",ChIJvx8xu_psiEcRb95Z8ke30Zc,"VIA BARDONECCHIA, 36/A, TORINO, Italia",45.07278549999999,7.644706999999999,1,10139,OK,street_address
242,ROOFTOP,"Via Stelvio, 45, 10141 Torino TO, Italy",ChIJNbzSHZVsiEcRmYkg8bkiKLk,"VIA STELVIO 45, TORINO, Italia",45.0657,7.628509999999999,1,10141,OK,street_address
243,ROOFTOP,"Via Boston, 33, 10137 Torino TO, Italy",ChIJpU6olSsTiEcRUseqfGDtAjs,"VIA BOSTON 33, TORINO, Italia",45.04048,7.6415,1,10137,OK,street_address
244,ROOFTOP,"Str. S. Vincenzo, 144, 10131 Torino TO, Italy",ChIJFd1ZJ8dyiEcReo_8pR4M-00,"STRADA S.VINCENZO N. 144, TORINO, Italia",45.05189,7.718590000000001,1,10131,OK,street_address
245,RANGE_INTERPOLATED,"Strada Comunale Santa Margherita, 177, 10131 Torino TO, Italy",Ej5TdHJhZGEgQ29tdW5hbGUgU2FudGEgTWFyZ2hlcml0YSwgMTc3LCAxMDEzMSBUb3Jpbm8gVE8sIEl0YWxpYSIbEhkKFAoSCbUC3q_AcohHERpudw4N3s5mELEB,"STRADA SANTA MARGHERITA, 177, TORINO, Italia",45.0532767,7.716792,1,10131,OK,street_address
246,ROOFTOP,"Via Eleonora d'Arborea, 9, 10137 Torino TO, Italy",ChIJNeKOlygTiEcR5sBntRzb7ew,"VIA ELEONORA D'ARBOREA 9/4, TORINO, Italia",45.0351729,7.640466200000001,1,10137,OK,street_address
247,ROOFTOP,"Via Monte Novegno, 31, 10137 Torino TO, Italy",ChIJNe7w5TMTiEcROROxAie_LAQ,"VIA MONTE NOVEGNO 31, TORINO, Italia",45.04048,7.630100000000001,1,10137,OK,street_address
248,ROOFTOP,"Via Valenza, 71, 10127 Torino TO, Italy",ChIJTyUaFb4SiEcRh6WNDmVp1_I,"VIA    VALENZA    71, TORINO, Italia",45.0245358,7.6678185,1,10127,OK,street_address
249,ROOFTOP,"Corso Rodolfo Montevecchio, 67, 10129 Torino TO, Italy",ChIJlQWTxBltiEcRC3-z0rgSPEs,"C.SO MONTEVECCHIO 67, TORINO, Italia",45.0643711,7.662574799999999,1,10129,OK,street_address
250,ROOFTOP,"Corso Unione Sovietica, 490, 10135 Torino TO, Italy",ChIJ9WN9WxoTiEcRdeBOlrX82rA,"C.SO UNIONE SOVIETICA, 490, TORINO, Italia",45.0192373,7.6306929,1,10135,OK,street_address
251,ROOFTOP,"Via Giuseppe Giacosa, 23, 10125 Torino TO, Italy",ChIJWThanERtiEcROaJuLCEYXLw,"VIA GIACOSA, 23, TORINO, Italia",45.0550626,7.6813023,1,10125,OK,street_address
252,ROOFTOP,"Corso Moncalieri, 400, 10133 Torino TO, Italy",ChIJKaYX6qISiEcRifFH67M0Kfs,"C.SO MONCALIERI, N.400, TORINO, Italia",45.0239966,7.6752353,1,10133,OK,street_address
253,ROOFTOP,"Via Rondissone, 32, 10155 Torino TO, Italy",ChIJAY6syextiEcRjcq7kAM3xuA,"VIA RONDISSONE 32, TORINO, Italia",45.0973289,7.69056,1,10155,OK,street_address
254,ROOFTOP,"Via Rovereto, 21, 10136 Torino TO, Italy",ChIJKym5FtBsiEcRFp4wu4BhPPE,"VIA ROVERETO, 21, TORINO, Italia",45.05227559999999,7.639108299999999,1,10136,OK,street_address
255,RANGE_INTERPOLATED,"Via degli Abeti, 15, 10156 Torino TO, Italy",EixWaWEgZGVnbGkgQWJldGksIDE1LCAxMDE1NiBUb3Jpbm8gVE8sIEl0YWxpYSIaEhgKFAoSCWmbXNgebohHEfJA4SgEADPiEA8,"VIA ABETI 15, TORINO, Italia",45.1307126,7.710404199999998,1,10156,OK,street_address
256,ROOFTOP,"Via delle Magnolie, 15, 10151 Torino TO, Italy",ChIJW2xQIRNsiEcRc9ZClPT53fY,"VIA DELLE MAGNOLIE 15, TORINO, Italia",45.1016849,7.6320092,1,10151,OK,street_address
257,ROOFTOP,"Via Plava, 177, 10135 Torino TO, Italy",ChIJmUDKHGYTiEcRlI_fZRRGJRU,"VIA PLAVA 177/2, TORINO, Italia",45.0232509,7.6075392,1,10135,OK,street_address
258,ROOFTOP,"Str. Castello di Mirafiori, 45, 10135 Torino TO, Italy",ChIJM9uD1gUTiEcR-J42LXfL0eM,"STR. CASTELLO DI MIRAFIORI 45, TORINO, Italia",45.01198,7.62946,1,10135,OK,street_address
259,ROOFTOP,"Via Cavagnolo, 35, 10156 Torino TO, Italy",ChIJ5esT9QBuiEcREVNX4Cpn41A,"VIA CAVAGNOLO 35, TORINO, Italia",45.1160496,7.7072341,1,10156,OK,street_address
260,ROOFTOP,"Via Luigi Boccherini, 43, 10155 Torino TO, Italy",ChIJKTeBnO5tiEcRX6-SF-VpW1s,"VIA BOCCHERINI 43, TORINO, Italia",45.1017587,7.6921929,1,10155,OK,street_address
261,ROOFTOP,"Via Ruggero Leoncavallo, 61, 10154 Torino TO, Italy",ChIJpTpiIYhtiEcRlT0NqUhNAKU,"VIA LEONCAVALLO 61/2, TORINO, Italia",45.0880511,7.7029018,1,10154,OK,street_address
262,ROOFTOP,"Via Cervino, 6, 10155 Torino TO, Italy",ChIJc-FDR5FtiEcRPCfThxyOazU,"VIA CERVINO, 6, TORINO, Italia",45.0912946,7.688435999999999,1,10155,OK,street_address
263,ROOFTOP,"Via Pietro Cossa, 115, 10146 Torino TO, Italy",ChIJtxpLY31siEcRIct5GOz68DE,"VIA PIETRO COSSA 115/21, TORINO, Italia",45.0830231,7.6216681,1,10146,OK,street_address
264,ROOFTOP,"Via Valgioie, 72, 10146 Torino TO, Italy",ChIJKbh1HYxsiEcRjvvxc-6gYCA,"VIA VALGIOIE 72, TORINO, Italia",45.0769041,7.6277895,1,10146,OK,street_address
265,ROOFTOP,"Via Lorenzo Delleani, 25, 10141 Torino TO, Italy",ChIJZ7GmhetsiEcRCAlWmq2Nnhw,"VIA DELLEANI 25, TORINO, Italia",45.0674065,7.6341893,1,10141,OK,premise
266,ROOFTOP,"Via Tolmino, 30, 10141 Torino TO, Italy",ChIJjxF4qt5siEcRFU8-30MVQCY,"VIA TOLMINO 30, TORINO, Italia",45.0577835,7.644711600000001,1,10141,OK,street_address
267,ROOFTOP,"Via Augusto Berta, 15, 10141 Torino TO, Italy",ChIJu20y_SBtiEcR4Rw-1mFy-tY,"VIA BERTA , 15, TORINO, Italia",45.0588992,7.6534206,1,10141,OK,street_address
268,RANGE_INTERPOLATED,"Via Emanuele Artom, 109, 10135 Torino TO, Italy",EjBWaWEgRW1hbnVlbGUgQXJ0b20sIDEwOSwgMTAxMzUgVG9yaW5vIFRPLCBJdGFsaWEiGhIYChQKEgmZyBIT9xKIRxE-MX-eQFvXtxBt,"VIA ARTOM 109/3, TORINO, Italia",45.0092005,7.650518699999999,1,10135,OK,street_address
269,ROOFTOP,"Via Monastir, 17, 10127 Torino TO, Italy",ChIJa3VYEu4SiEcRg2nEWX7FqcQ,"VIA MONASTIER, 17/9, TORINO, Italia",45.015778,7.6549779,1,10127,OK,street_address
270,ROOFTOP,"Via Fratelli Passoni, 9, 10146 Torino TO, Italy",ChIJV1sG_31siEcRYoiAekwGQFE,"VIA PASSONI 9, TORINO, Italia",45.083063,7.6182428,1,10146,OK,street_address
271,ROOFTOP,"Via Baltimora, 76, 10137 Torino TO, Italy",ChIJ4wTOZ9NsiEcR-Q0VRs7QkCo,"VIA BALTIMORA 76, TORINO, Italia",45.04526329999999,7.640930300000001,1,10137,OK,street_address
272,ROOFTOP,"Corso Orbassano, 224, 10137 Torino TO, Italy",ChIJbc-JeC0TiEcReaEB_KfJdg8,"CORSO ORBASSANO 224/26, TORINO, Italia",45.0421145,7.6352176,1,10137,OK,street_address
273,ROOFTOP,"Piazza Giuseppe Cesare Abba, 9, 10154 Torino TO, Italy",ChIJawMSHXJyiEcRyy9KfyppJUE,"PIAZZA ABBA 9, TORINO, Italia",45.0906844,7.714330199999999,1,10154,OK,street_address
274,ROOFTOP,"Via Santa Chiara, 12, 10122 Torino TO, Italy",ChIJD3vyQnRtiEcRn_AuTxu03wg,"VIA SANTA CHIARA, 12, TORINO, Italia",45.0753061,7.681114900000001,1,10122,OK,street_address
275,ROOFTOP,"Corso Giacomo Matteotti, 6, 10121 Torino TO, Italy",ChIJvVuoYmxtiEcRWR54JL6xdKw,"CORSO MATTEOTTI, 6 BIS, TORINO, Italia",45.065714,7.677249,1,10121,OK,street_address
276,RANGE_INTERPOLATED,"Corso Sicilia, 24, 10133 Torino TO, Italy",EipDb3JzbyBTaWNpbGlhLCAyNCwgMTAxMzMgVG9yaW5vIFRPLCBJdGFsaWEiGhIYChQKEgm9xCYnU22IRxEwpXk6k-kC7RAY,"CORSO SICILIA 24, TORINO, Italia",45.0415695,7.6823715,1,10133,OK,street_address
277,RANGE_INTERPOLATED,"Via Martino Anglesio, 17, 10156 Torino TO, Italy",EjFWaWEgTWFydGlubyBBbmdsZXNpbywgMTcsIDEwMTU2IFRvcmlubyBUTywgSXRhbGlhIhoSGAoUChIJLY2quSJyiEcRa58rVzUAymYQEQ,"VIA ANGESIO, 17, TORINO, Italia",45.1042728,7.731226299999999,1,10156,OK,street_address
278,ROOFTOP,"Via Poirino, 9, 10134 Torino TO, Italy",ChIJzWZR-dkSiEcRJZEqlDVyHL8,"VIA POIRINO,9, TORINO, Italia",45.03363,7.649229999999998,1,10134,OK,street_address
279,ROOFTOP,"Via Thures, 11, 10142 Torino TO, Italy",ChIJ63gSE2NriEcR-kAgpMouuSA,"VIA THURES 11, TORINO, Italia",45.072664,7.6059069,1,10142,OK,street_address
280,ROOFTOP,"Via Postumia, 28, 10141 Torino TO, Italy",ChIJE9nrN5dsiEcRwmyDZ4nu3jg,"VIA POSTUMIA 28, TORINO, Italia",45.0682324,7.621224600000001,1,10141,OK,street_address
281,ROOFTOP,"Via Fossano, 8, 10144 Torino TO, Italy",ChIJFWdybaxtiEcRg4Z80Nn__iI,"VIA FOSSANO 8, TORINO, Italia",45.0853839,7.6619338,1,10144,OK,street_address
282,ROOFTOP,"Via Balme, 46, 10143 Torino TO, Italy",ChIJB5zBI1ZsiEcRaI4qWbiOQ4A,"VIA BALME, 46, TORINO, Italia",45.0812775,7.649496300000001,1,10143,OK,street_address
283,ROOFTOP,"Corso Chieri, 136, 10132 Torino TO, Italy",ChIJV-U9AR5ziEcRchmJcapll2U,"CORSO CHIERI 136, TORINO, Italia",45.0602302,7.740762399999999,1,10132,OK,street_address
284,ROOFTOP,"Via Beato Giuseppe Cafasso, 73, 10132 Torino TO, Italy",ChIJF3FakENyiEcRG_yo0SA6QnY,"VIA BEATO CAFASSO 73, TORINO, Italia",45.0878567,7.730312199999999,1,10132,OK,street_address
285,ROOFTOP,"Via Luserna di Rorà, 14, 10139 Torino TO, Italy",ChIJ8zST-eNsiEcRmv36w6mZxGk,"VIA LUSERNA DI RORA' 14, TORINO, Italia",45.0674125,7.6477659,1,10139,OK,street_address
286,ROOFTOP,"Via Montevideo, 11, 10134 Torino TO, Italy",ChIJifUyv9ESiEcR_2Vw_6mY6Fs,"VIA MONTEVIDEO 11, TORINO, Italia",45.0364333,7.6541771,1,10134,OK,premise
287,ROOFTOP,"Via Giuditta Sidoli, 10, 10135 Torino TO, Italy",ChIJw4HZjt4SiEcRh1opPKRdNjI,"VIA SIDOLI,10, TORINO, Italia",45.027593,7.6466232,1,10135,OK,street_address
288,ROOFTOP,"Via Pietro Palmieri, 58, 10138 Torino TO, Italy",ChIJgbRiXgNtiEcRQO0DPwFJobk,"VIA PALMIERI 58, TORINO, Italia",45.0718366,7.659515600000001,1,10138,OK,street_address
289,ROOFTOP,"Corso Lombardia, 98, 10151 Torino TO, Italy",ChIJCXLPZkZsiEcRJkSr0hMMO1s,"C.SO LOMBARDIA 98, TORINO, Italia",45.0960314,7.6472685,1,10151,OK,street_address
290,ROOFTOP,"Via Asigliano Vercellese, 10, 10153 Torino TO, Italy",ChIJZ3lCYvVyiEcR58WuP0DC69o,"VIA ASIGLIANO VERCELLESE 10, TORINO, Italia",45.07576,7.724150000000001,1,10153,OK,street_address
291,ROOFTOP,"Via Bettino Ricasoli, 30, 10153 Torino TO, Italy",ChIJc0UlBYRyiEcRtenpTOgX8MU,"VIA  RICASOLI  30, TORINO, Italia",45.0719777,7.705285699999999,1,10153,OK,street_address
292,ROOFTOP,"Corso Regio Parco, 19, 10152 Torino TO, Italy",ChIJ90Ccs3htiEcRc8BQYOlmT24,"CORSO REGIO PARCO 19, TORINO, Italia",45.0771027,7.6945139,1,10152,OK,street_address
293,ROOFTOP,"Via Carlo Lorenzini, 4, 10147 Torino TO, Italy",ChIJnVHmJ8dtiEcRCiyeYNHcMjs,"VIA LORENZINI 4, TORINO, Italia",45.0999868,7.677997799999999,1,10147,OK,premise
294,RANGE_INTERPOLATED,"Via Casteldelfino, 24, 10147 Torino TO, Italy",Ei5WaWEgQ2FzdGVsZGVsZmlubywgMjQsIDEwMTQ3IFRvcmlubyBUTywgSXRhbGlhIhoSGAoUChIJI5nCiMhtiEcRhIsdA4jBgWwQGA,"VIA CASTELDELFINO 24, TORINO, Italia",45.1004777,7.6726292,1,10147,OK,street_address
295,ROOFTOP,"Via Brissogne, 32, 10142 Torino TO, Italy",ChIJje3btaJsiEcRWWUEBzytSG8,"VIA BRISSOGNE 32, TORINO, Italia",45.0632097,7.618116100000001,1,10142,OK,street_address
296,ROOFTOP,"Via Paolo Braccini, 70, 10141 Torino TO, Italy",ChIJ2UmnQ95siEcRRKFGVE1BDOg,"VIA BRACCINI 70, TORINO, Italia",45.0606637,7.6472455,1,10141,OK,street_address
297,ROOFTOP,"Via Bologna, 77, 10154 Torino TO, Italy",ChIJB6TI7oZtiEcR6YmDPdG-l3w,"VIA BOLOGNA 77, TORINO, Italia",45.0837003,7.697833399999999,1,10154,OK,street_address
298,ROOFTOP,"Via Tollegno, 83, 10154 Torino TO, Italy",ChIJB1gqu3dyiEcRuZtL8Bu2tfw,"VIA TOLLEGNO 83, TORINO, Italia",45.08811,7.705369999999999,1,10154,OK,street_address
299,ROOFTOP,"Corso Giulio Cesare, 26, 10152 Torino TO, Italy",ChIJQZnvf5ttiEcRjwsINFPIAgU,"CORSO GIULIO CESARE 26, TORINO, Italia",45.08301789999999,7.688000499999999,1,10152,OK,street_address
300,ROOFTOP,"Via Antonio Cecchi, 16, 10152 Torino TO, Italy",ChIJO0wNAZltiEcR861ONHcRhiQ,"VIA ANTONIO CECCHI 16, TORINO, Italia",45.08542509999999,7.683275600000001,1,10152,OK,premise
301,ROOFTOP,"Via le Chiuse, 80, 10144 Torino TO, Italy",ChIJ3XqAY6ptiEcRQlHEt7Cb0pk,"VIA LE CHIUSE 80, TORINO, Italia",45.0810311,7.659809600000001,1,10144,OK,street_address
302,ROOFTOP,"Via Bardassano, 5, 10132 Torino TO, Italy",ChIJE14xLZByiEcRX2FAArLjclk,"VIA  BARDASSANO   5, TORINO, Italia",45.067017,7.711492999999999,1,10132,OK,street_address
303,ROOFTOP,"Corso Guglielmo Marconi, 28, 10125 Torino TO, Italy",ChIJCxBcYUNtiEcRwfvCOZKiXzU,"CORSO MARCONI, 28, TORINO, Italia",45.0554692,7.681584099999999,1,10125,OK,street_address
304,RANGE_INTERPOLATED,"Via Negarville, 30, 10135 Torino TO, Italy",EitWaWEgTmVnYXJ2aWxsZSwgMzAsIDEwMTM1IFRvcmlubyBUTywgSXRhbGlhIhoSGAoUChIJb3dblG4TiEcRM-nkJht5NwMQHg,"VIA NEGARVILLE 30/6, TORINO, Italia",45.0209608,7.611720500000001,2,10135,OK,street_address
305,ROOFTOP,"Via Savigliano, 7, 10144 Torino TO, Italy",ChIJYaivX6ZtiEcRU_ekajjyA9w,"VIA SAVIGLIANO, 7, TORINO, Italia",45.0826937,7.6709817,1,10144,OK,street_address
306,ROOFTOP,"Via Garessio, 24/6, 10126 Torino TO, Italy",ChIJj5rvorkSiEcRv_UvvsOvxR4,"VIA GARESSIO 24/5, TORINO, Italia",45.0307415,7.6695803,3,10126,OK,premise
307,ROOFTOP,"Via Alassio, 22, 10126 Torino TO, Italy",ChIJZ4ysmLUSiEcRKAdop1smZjU,"VIA ALASSIO, 22, TORINO, Italia",45.0393134,7.669135000000001,1,10126,OK,street_address
308,ROOFTOP,"Via delle Magnolie, 9, 10151 Torino TO, Italy",ChIJieGAQRNsiEcRLLv3Z8CZ8wM,"VIA      MAGNOLIE              9, TORINO, Italia",45.10179,7.63333,1,10151,OK,street_address
309,ROOFTOP,"Via dei Mille, 15, 10123 Torino TO, Italy",ChIJE8pd92ZtiEcRTo2uKzANmHY,"VIA DEI MILLE 15, TORINO, Italia",45.06243629999999,7.688244199999999,1,10123,OK,street_address
310,ROOFTOP,"Via Saverio Mercadante, 68, 10154 Torino TO, Italy",ChIJWyXAoIttiEcRuJe7bR5uB_0,"VIA MERCADANTE 68/8, TORINO, Italia",45.0937721,7.700892100000001,1,10154,OK,street_address
311,ROOFTOP,"Via Duchessa Jolanda, 27, 10138 Torino TO, Italy",ChIJOSO41ANtiEcRkaLFWulTSDg,"VIA DUCHESSA JOLANDA, 27 BIS, TORINO, Italia",45.0753762,7.6580495,1,10138,OK,street_address
312,ROOFTOP,"Via Bligny, 1, 10122 Torino TO, Italy",ChIJxagnXgttiEcRsJVVL3dUToU,"VIA BLIGNY 1 BIS, TORINO, Italia",45.0749127,7.6759051,1,10122,OK,street_address
313,GEOMETRIC_CENTER,"Via Gino Marinuzzi Musicista, 10156 Torino TO, Italy",ChIJRzQ0ZwFuiEcRZRDY-56il_I,"VIA MARINUZZI, 1 - TORINO, TORINO, Italia",45.118933,7.707391400000001,2,10156,OK,"establishment,point_of_interest,school"
314,ROOFTOP,"Via Figlie dei Militari, 25, 10131 Torino TO, Italy",ChIJ2w7h7JByiEcRzICSHSN1PMA,"VIA FIGLIE DEI MILITARI 25, TORINO, Italia",45.0643227,7.7096435,1,10131,OK,street_address
315,ROOFTOP,"Via Maria Vittoria, 39, 10123 Torino TO, Italy",ChIJWWi7lGNtiEcRWxBpTbaaE_Y,"VIA MARIA VITTORIA 39 BIS, TORINO, Italia",45.065312,7.6919903,1,10123,OK,street_address
316,ROOFTOP,"Via Sostegno, 41/10, 10146 Torino TO, Italy",ChIJ6VrXM4RsiEcR8b3ZsHSX8qE,"VIA SOSTEGNO,41/10, TORINO, Italia",45.0784219,7.617693800000001,1,10146,OK,street_address
317,RANGE_INTERPOLATED,"Via Castelgomberto, 2, 10137 Torino TO, Italy",Ei5WaWEgQ2FzdGVsZ29tYmVydG8sIDIsIDEwMTM3IFRvcmlubyBUTywgSXRhbGlhIhoSGAoUChIJ9X09UTITiEcRVzvxUL2hyocQAg,"VIA CASTELGOMBERTO,2O, TORINO, Italia",45.04186780000001,7.6320289,1,10137,OK,street_address
318,ROOFTOP,"Corso S. Maurizio, 8, 10124 Torino TO, Italy",ChIJTQwThXttiEcRrvXIKUhkYPQ,"C.SO SAN MAURIZIO 8, TORINO, Italia",45.0710607,7.692885199999999,1,10124,OK,street_address
319,ROOFTOP,"Corso Peschiera, 230, 10139 Torino TO, Italy",ChIJsZ60UO9siEcRgM-gTCFLkJg,"C.SO PESCHIERA 230, TORINO, Italia",45.0681326,7.641962899999998,1,10139,OK,street_address
320,ROOFTOP,"Corso Venezia, 29, 10147 Torino TO, Italy",ChIJuUX8QL5tiEcRgJbDNqnMiyA,"CORSO VENEZIA 29, TORINO, Italia",45.0942245,7.6807889,1,10147,OK,street_address
321,ROOFTOP,"Corso Caio Plinio, 2, 10127 Torino TO, Italy",ChIJgSYSGsMSiEcRnieotBbd1ag,"CORSO CAIO PLINIO,2, TORINO, Italia",45.02655410000001,7.6549516,1,10127,OK,street_address
322,ROOFTOP,"Via Figlie dei Militari, 25, 10131 Torino TO, Italy",ChIJ2w7h7JByiEcRzICSHSN1PMA,"VIA FIGLIE DEI MILITARI, 25, TORINO, Italia",45.0643227,7.7096435,1,10131,OK,street_address
323,ROOFTOP,"Via Torrazza Piemonte, 10, 10127 Torino TO, Italy",ChIJhSVE1u0SiEcR_p1EnPpmweM,"VIA TORRAZZA PIEMONTE 10, TORINO, Italia",45.01665999999999,7.656239999999999,1,10127,OK,street_address
324,ROOFTOP,"Corso Peschiera, 230, 10139 Torino TO, Italy",ChIJsZ60UO9siEcRgM-gTCFLkJg,"CORSO PESCHIERA, 230, TORINO, Italia",45.0681326,7.641962899999998,1,10139,OK,street_address
325,ROOFTOP,"Via Giuseppe Genè, 14, 10152 Torino TO, Italy",ChIJ12hmOHhtiEcRnT6K9eVe2Kk,"VIA GENE'  14, TORINO, Italia",45.0763454,7.690059400000001,1,10152,OK,street_address
326,GEOMETRIC_CENTER,"Via Giuseppe Genè, 10152 Torino TO, Italy",ChIJTaPTL3htiEcR9Ja9wF9ghx4,"VIA GENE', TORINO, Italia",45.0762763,7.6895883,1,10152,OK,route
327,ROOFTOP,"Via Raimondo Montecuccoli, 12, 10121 Torino TO, Italy",ChIJoRpz_A1tiEcR67IlbrJX1M8,"VIA MONTECUCCOLI,12, TORINO, Italia",45.070437,7.670993500000001,1,10121,OK,premise
328,ROOFTOP,"Via Raimondo Montecuccoli, 12, 10121 Torino TO, Italy",ChIJoRpz_A1tiEcR67IlbrJX1M8,"VIA MONTECUCCOLI 12, TORINO, Italia",45.070437,7.670993500000001,1,10121,OK,premise
329,ROOFTOP,"Via Antonio Meucci, 9, 10121 Torino TO, Italy",ChIJW5b-Xw1tiEcRDUQpebbMJ98,"VIA MEUCCI,9, TORINO, Italia",45.0698037,7.674631000000001,1,10121,OK,street_address
330,ROOFTOP,"Via Giorgio Bidone, 11, 10125 Torino TO, Italy",ChIJ21cg1EVtiEcRUbhK5TQhUGc,"VIA G.BIDONE 11, TORINO, Italia",45.0529957,7.6772984,1,10125,OK,street_address
331,ROOFTOP,"Via Giorgio Bidone, 11, 10125 Torino TO, Italy",ChIJ21cg1EVtiEcRUbhK5TQhUGc,"VIA BIDONE N. 11, TORINO, Italia",45.0529957,7.6772984,1,10125,OK,street_address
332,RANGE_INTERPOLATED,"Lungo Dora Agrigento, 20, 10152 Torino TO, Italy",EjFMdW5nbyBEb3JhIEFncmlnZW50bywgMjAsIDEwMTUyIFRvcmlubyBUTywgSXRhbGlhIhoSGAoUChIJucekNpxtiEcRqYr-xwvOEnAQFA,"LUNGO DORA AGRIGENTO 20/A, TORINO, Italia",45.0809608,7.6858397,1,10152,OK,street_address
333,ROOFTOP,"Str. di S. Mauro, 32, 10156 Torino TO, Italy",ChIJR2sEbhZyiEcR5wwvUYtrK7I,"STRADA SAN MAURO 32, TORINO, Italia",45.0997414,7.7270179,1,10156,OK,street_address
334,ROOFTOP,"Via degli Abeti, 13, 10156 Torino TO, Italy",ChIJeYjX1R5uiEcRzoZ9EYUPDe0,"VIA  DEGLI ABETI 13, TORINO, Italia",45.13076,7.70958,1,10156,OK,street_address
335,ROOFTOP,"Via Madonna De La Salette, 29, 10146 Torino TO, Italy",ChIJZSgDFIRsiEcRk0R5AsfWLy0,"VIA MADONNA DE LA SALETTE 29, TORINO, Italia",45.07741,7.61779,1,10146,OK,street_address
336,ROOFTOP,"Via Madonna De La Salette, 29, 10146 Torino TO, Italy",ChIJZSgDFIRsiEcRk0R5AsfWLy0,"VIA MADONNA DE LA SALETTE 29, TORINO, Italia",45.07741,7.61779,1,10146,OK,street_address
337,ROOFTOP,"Corso Duca degli Abruzzi, 20, 10129 Torino TO, Italy",ChIJy9kNgBdtiEcRYUr4QLExg0A,"CORSO DUCA DEGLI ABRUZZI, 20, TORINO, Italia",45.0637058,7.663079700000001,1,10129,OK,street_address
338,ROOFTOP,"Corso Duca degli Abruzzi, 20, 10129 Torino TO, Italy",ChIJy9kNgBdtiEcRYUr4QLExg0A,"CORSO DUCA DEGLI ABRUZZI, 20, TORINO, Italia",45.0637058,7.663079700000001,1,10129,OK,street_address
339,ROOFTOP,"Corso Molise, 58, 10151 Torino TO, Italy",ChIJ3YWOFBVsiEcRq1Qt1f8kD0w,"CORSO MOLISE 58, TORINO, Italia",45.1039344,7.6385733,1,10151,OK,street_address
340,ROOFTOP,"Corso Molise, 58, 10151 Torino TO, Italy",ChIJ3YWOFBVsiEcRq1Qt1f8kD0w,"CORSO MOLISE 58, TORINO, Italia",45.1039344,7.6385733,1,10151,OK,street_address
341,ROOFTOP,"Corso Peschiera, 230, 10139 Torino TO, Italy",ChIJsZ60UO9siEcRgM-gTCFLkJg,"CORSO PESCHIERA, 230, TORINO, Italia",45.0681326,7.641962899999998,1,10139,OK,street_address
342,ROOFTOP,"Via Amilcare Ponchielli, 56, 10154 Torino TO, Italy",ChIJU0U8znlyiEcR47guApibX9s,"VIA PONCHIELLI,56, TORINO, Italia",45.0857879,7.7058793,1,10154,OK,street_address
343,ROOFTOP,"Via Amilcare Ponchielli, 56, 10154 Torino TO, Italy",ChIJU0U8znlyiEcR47guApibX9s,"VIA PONCHIELLI,56, TORINO, Italia",45.0857879,7.7058793,1,10154,OK,street_address
344,ROOFTOP,"Via Ignazio Collino, 12, 10137 Torino TO, Italy",ChIJybPzFzYTiEcRAVXerWh38uQ,"VIA COLLINO 12, TORINO, Italia",45.039651,7.623141400000001,1,10137,OK,street_address
345,ROOFTOP,"Corso Caio Plinio, 6, 10127 Torino TO, Italy",ChIJlcak-8ISiEcRdRp2e6bV8tI,"C.SO CAIO PLINIO 6, TORINO, Italia",45.0260424,7.6552925,1,10127,OK,street_address
346,ROOFTOP,"Via Figlie dei Militari, 25, 10131 Torino TO, Italy",ChIJ2w7h7JByiEcRzICSHSN1PMA,"VIA FIGLIE DEI MILITARI 25, TORINO, Italia",45.0643227,7.7096435,1,10131,OK,street_address
347,ROOFTOP,"Via Gianfranco Zuretti, 29, 10126 Torino TO, Italy",ChIJm5h4k7ASiEcR_yOzy2eXeeA,"VIA ZURETTI 29, TORINO, Italia",45.0333365,7.673528699999999,1,10126,OK,street_address
348,ROOFTOP,"Piazza Polonia, 94, 10126 Torino TO, Italy",ChIJe8lOALESiEcRoFBfxcicclo,"PIAZZA POLONIA 94, TORINO, Italia",45.03449759999999,7.6747722,1,10126,OK,premise
349,ROOFTOP,"Corso Unione Sovietica, 490, 10135 Torino TO, Italy",ChIJ9WN9WxoTiEcRdeBOlrX82rA,"CORSO UNIONE SOVIETICA, 490, TORINO, Italia",45.0192373,7.6306929,1,10135,OK,street_address
350,ROOFTOP,"Via Paolo Gaidano, 126, 10137 Torino TO, Italy",ChIJSzZ2WkoTiEcRgzagU_EdgEY,"VIA GAIDANO 126, TORINO, Italia",45.04241649999999,7.6219723,1,10137,OK,street_address
351,ROOFTOP,"Via Paolo della Cella, 3, 10148 Torino TO, Italy",ChIJlYU8iMRtiEcRmqcqee_T2dM,"VIA P. DELLA CELLA 3, TORINO, Italia",45.1048777,7.6786276,1,10148,OK,street_address
352,ROOFTOP,"Corso S. Maurizio, 8, 10124 Torino TO, Italy",ChIJTQwThXttiEcRrvXIKUhkYPQ,"CORSO SAN MAURIZIO,8, TORINO, Italia",45.0710607,7.692885199999999,1,10124,OK,street_address
353,ROOFTOP,"Corso S. Maurizio, 8, 10124 Torino TO, Italy",ChIJTQwThXttiEcRrvXIKUhkYPQ,"CORSO SAN MAURIZIO,8, TORINO, Italia",45.0710607,7.692885199999999,1,10124,OK,street_address
354,ROOFTOP,"Via Paolo Braccini, 11, 10141 Torino TO, Italy",ChIJdVkeCSFtiEcR3MH6UwYbkvc,"VIA BRACCINI 11, TORINO, Italia",45.0591951,7.6545136,1,10141,OK,street_address
355,ROOFTOP,"Via Bligny, 1, 10122 Torino TO, Italy",ChIJxagnXgttiEcRsJVVL3dUToU,"VIA  BLIGNY   1 BIS, TORINO, Italia",45.0749127,7.6759051,1,10122,OK,street_address
356,ROOFTOP,"Via Antonio Meucci, 9, 10121 Torino TO, Italy",ChIJW5b-Xw1tiEcRDUQpebbMJ98,"VIA MEUCCI 9, TORINO, Italia",45.0698037,7.674631000000001,1,10121,OK,street_address
357,ROOFTOP,"Via Giorgio Bidone, 11, 10125 Torino TO, Italy",ChIJ21cg1EVtiEcRUbhK5TQhUGc,"VIA BIDONE 11, TORINO, Italia",45.0529957,7.6772984,1,10125,OK,street_address
358,ROOFTOP,"Via Giorgio Bidone, 11, 10125 Torino TO, Italy",ChIJ21cg1EVtiEcRUbhK5TQhUGc,"VIA BIDONE 11, TORINO, Italia",45.0529957,7.6772984,1,10125,OK,street_address
359,RANGE_INTERPOLATED,"Via Germonio, 12, 10095 [no name] TO, Italy",EixWaWEgR2VybW9uaW8sIDEyLCAxMDA5NSBbbm8gbmFtZV0gVE8sIEl0YWxpYSIaEhgKFAoSCWEbMAKfbIhHEZGbvPOTOnGtEAw,"VIA GERMNIO 12, TORINO, Italia",45.066855,7.6117351,1,10095,OK,street_address
360,ROOFTOP,"Via Figlie dei Militari, 27, 10131 Torino TO, Italy",ChIJ9SU86JByiEcRC7tu-7QZOPU,"VIA FIGLIE MILITARI 27, TORINO, Italia",45.0639764,7.710037199999999,1,10131,OK,street_address
361,ROOFTOP,"Via Figlie dei Militari, 27, 10131 Torino TO, Italy",ChIJ9SU86JByiEcRC7tu-7QZOPU,"VIA FIGLIE DEI MILITARI 27, TORINO, Italia",45.0639764,7.710037199999999,1,10131,OK,street_address
362,ROOFTOP,"Via Monte Corno, 34, 10127 Torino TO, Italy",ChIJjWH4usISiEcRzvamMbIL-ho,"VIA MONTE  CORNO 34, TORINO, Italia",45.0249789,7.653650700000001,1,10127,OK,street_address
363,ROOFTOP,"Via della Rocca, 7, 10123 Torino TO, Italy",ChIJ_W_41mNtiEcRkUSlJhm0CLY,"VIA DELLA ROCCA N.7, TORINO, Italia",45.0638571,7.6936806,1,10123,OK,street_address
364,ROOFTOP,"Via Giulio Carcano, 31, 10154 Torino TO, Italy",ChIJ67sPHmJyiEcR208Xa_UyvnI,"VIA CARCANO, 31, TORINO, Italia",45.0772142,7.7170509,1,10154,OK,street_address
365,ROOFTOP,"Via Maria Adelaide Aglietta, 35, 10149 Torino TO, Italy",ChIJn5fBRGxsiEcRDisDgw-dGf8,"VIA ADELAIDE AGLIETTA 35, TORINO, Italia",45.101504,7.6206494,2,10149,OK,"establishment,point_of_interest"
366,ROOFTOP,"Corso Enrico Tazzoli, 209, 10137 Torino TO, Italy",ChIJISNqcEgTiEcRyrC6EkKRNck,"C.SO TAZZOLI,209, TORINO, Italia",45.03637,7.62043,1,10137,OK,street_address
367,ROOFTOP,"Corso Enrico Tazzoli, 209, 10137 Torino TO, Italy",ChIJISNqcEgTiEcRyrC6EkKRNck,"C.SO TAZZOLI 209, TORINO, Italia",45.03637,7.62043,1,10137,OK,street_address
368,ROOFTOP,"Via Niccolò Paganini, 22, 10154 Torino TO, Italy",ChIJw1EFOHhyiEcRkpuLz5ofoV0,"VIA PAGANINI,22, TORINO, Italia",45.08540929999999,7.704685799999999,1,10154,OK,street_address
369,ROOFTOP,"Via Niccolò Paganini, 22, 10154 Torino TO, Italy",ChIJw1EFOHhyiEcRkpuLz5ofoV0,"VIA PAGANINI 22, TORINO, Italia",45.08540929999999,7.704685799999999,1,10154,OK,street_address
370,ROOFTOP,"Via Alassio, 20, 10126 Torino TO, Italy",ChIJQZCvnrUSiEcRoLRs2n3NT-8,"VIA ALASSIO 20, TORINO, Italia",45.03936909999999,7.668836700000001,1,10126,OK,street_address
371,ROOFTOP,"Via Amilcare Ponchielli, 56, 10154 Torino TO, Italy",ChIJU0U8znlyiEcR47guApibX9s,"VIA PONCHIELLI, 56, TORINO, Italia",45.0857879,7.7058793,1,10154,OK,street_address
372,ROOFTOP,"Via Santorre di Santarosa, 11, 10131 Torino TO, Italy",ChIJpxVhsZ5yiEcR8u5iMQpiZLM,"VIA SANTORRE SANTAROSA 11, TORINO, Italia",45.06248009999999,7.7015723,1,10131,OK,street_address
373,ROOFTOP,"Via Raimondo Montecuccoli, 12, 10121 Torino TO, Italy",ChIJoRpz_A1tiEcR67IlbrJX1M8,"VIA MONTECUCCOLI, 12, TORINO, Italia",45.070437,7.670993500000001,1,10121,OK,premise
374,ROOFTOP,"Via Raimondo Montecuccoli, 12, 10121 Torino TO, Italy",ChIJoRpz_A1tiEcR67IlbrJX1M8,"VIA MONTECUCCOLI 12, TORINO, Italia",45.070437,7.670993500000001,1,10121,OK,premise
375,ROOFTOP,"Via Alassio, 20, 10126 Torino TO, Italy",ChIJQZCvnrUSiEcRoLRs2n3NT-8,"VIA ALASSIO 20, TORINO, Italia",45.03936909999999,7.668836700000001,1,10126,OK,street_address
376,ROOFTOP,"Via Raimondo Montecuccoli, 12, 10121 Torino TO, Italy",ChIJoRpz_A1tiEcR67IlbrJX1M8,"VIA MONTECUCCOLI 12, TORINO, Italia",45.070437,7.670993500000001,1,10121,OK,premise
377,ROOFTOP,"Via Raimondo Montecuccoli, 12, 10121 Torino TO, Italy",ChIJoRpz_A1tiEcR67IlbrJX1M8,"VIA MONTECUCCOLI 12, TORINO, Italia",45.070437,7.670993500000001,1,10121,OK,premise
378,ROOFTOP,"Via Niccolò Paganini, 22, 10154 Torino TO, Italy",ChIJw1EFOHhyiEcRkpuLz5ofoV0,"VIA PAGANINI,22, TORINO, Italia",45.08540929999999,7.704685799999999,1,10154,OK,street_address
379,ROOFTOP,"Piazza di Robilant Carlo Generale, 5, 10141 Torino TO, Italy",ChIJV7SWw91siEcRzHEjFfGb20g,"PIAZZA ROBILANT,5, TORINO, Italia",45.06099,7.644819999999999,1,10141,OK,street_address
380,ROOFTOP,"Via Pianezza, 100, 10151 Torino TO, Italy",ChIJkau4SE9siEcRdSsfEqyiwlA,"VIA PIANEZZA 100, TORINO, Italia",45.0944002,7.650256799999999,1,10151,OK,street_address
381,ROOFTOP,"Piazza di Robilant Carlo Generale, 5, 10141 Torino TO, Italy",ChIJV7SWw91siEcRzHEjFfGb20g,"PIAZZA ROBILANT,5, TORINO, Italia",45.06099,7.644819999999999,1,10141,OK,street_address
382,ROOFTOP,"Corso Novara, 65, 10154 Torino TO, Italy",ChIJF9RTmoZtiEcRTxdPIUXZy8M,"CORSO NOVARA,65, TORINO, Italia",45.084002,7.697218899999999,1,10154,OK,street_address
383,ROOFTOP,"Via Lavagna, 8, 10126 Torino TO, Italy",ChIJB8gddLcSiEcRNbK2o3wkG-c,"VIA LAVAGNA, 8, TORINO, Italia",45.03348,7.669299999999999,1,10126,OK,street_address
384,ROOFTOP,"Via Paolo Braccini, 11, 10141 Torino TO, Italy",ChIJdVkeCSFtiEcR3MH6UwYbkvc,"VIA  BRACCINI 11, TORINO, Italia",45.0591951,7.6545136,1,10141,OK,street_address
385,ROOFTOP,"Via Gorizia, 7, 10136 Torino TO, Italy",ChIJO3KrndBsiEcRmhfi_Dk_OGQ,"VIA GORIZIA, 7, TORINO, Italia",45.0531382,7.642672999999998,1,10136,OK,street_address
386,ROOFTOP,"Via Lavagna, 8, 10126 Torino TO, Italy",ChIJB8gddLcSiEcRNbK2o3wkG-c,"VIA LAVAGNA, 8, TORINO, Italia",45.03348,7.669299999999999,1,10126,OK,street_address
387,ROOFTOP,"Corso Venezia, 29, 10147 Torino TO, Italy",ChIJuUX8QL5tiEcRgJbDNqnMiyA,"CORSO  VENEZIA 29, TORINO, Italia",45.0942245,7.6807889,1,10147,OK,street_address
388,ROOFTOP,"Corso Venezia, 29, 10147 Torino TO, Italy",ChIJuUX8QL5tiEcRgJbDNqnMiyA,"CORSO VENEZIA,29, TORINO, Italia",45.0942245,7.6807889,1,10147,OK,street_address
389,ROOFTOP,"Via Rovigo, 19, 10152 Torino TO, Italy",ChIJo4UeI6JtiEcR2_hc32RVNvg,"VIA ROVIGO,19, TORINO, Italia",45.08412999999999,7.67829,1,10152,OK,street_address
390,ROOFTOP,"Via Rovigo, 19, 10152 Torino TO, Italy",ChIJo4UeI6JtiEcR2_hc32RVNvg,"VIA ROVIGO 19, TORINO, Italia",45.08412999999999,7.67829,1,10152,OK,street_address
391,ROOFTOP,"Via Paolo Veronese, 305, 10148 Torino TO, Italy",ChIJea9GWSxsiEcRmjLnrh4TBpc,"VIA  VERONESE 305, TORINO, Italia",45.1110202,7.661804099999999,1,10148,OK,street_address
392,ROOFTOP,"Via Salerno, 60, 10152 Torino TO, Italy",ChIJ5fdRtaNtiEcRrlPd0HD6THw,"VIA SALERNO 60, TORINO, Italia",45.0848244,7.677486999999999,1,10152,OK,street_address
393,ROOFTOP,"Via Salerno, 60, 10152 Torino TO, Italy",ChIJ5fdRtaNtiEcRrlPd0HD6THw,"VIA SALERNO 60, TORINO, Italia",45.0848244,7.677486999999999,1,10152,OK,street_address
394,ROOFTOP,"Via Giulio Carcano, 31, 10154 Torino TO, Italy",ChIJ67sPHmJyiEcR208Xa_UyvnI,"VIA CARCANO, 31, TORINO, Italia",45.0772142,7.7170509,1,10154,OK,street_address
395,RANGE_INTERPOLATED,"Via Castelgomberto, 2, 10137 Torino TO, Italy",Ei5WaWEgQ2FzdGVsZ29tYmVydG8sIDIsIDEwMTM3IFRvcmlubyBUTywgSXRhbGlhIhoSGAoUChIJ9X09UTITiEcRVzvxUL2hyocQAg,"VIA CASTELGOMBERTO,2O, TORINO, Italia",45.04186780000001,7.6320289,1,10137,OK,street_address
396,ROOFTOP,"Via Paolo della Cella, 3, 10148 Torino TO, Italy",ChIJlYU8iMRtiEcRmqcqee_T2dM,"VIA P. DELLA CELLA, 3, TORINO, Italia",45.1048777,7.6786276,1,10148,OK,street_address
397,ROOFTOP,"Via Paolo della Cella, 3, 10148 Torino TO, Italy",ChIJlYU8iMRtiEcRmqcqee_T2dM,"VIA P. DELLA CELLA 3, TORINO, Italia",45.1048777,7.6786276,1,10148,OK,street_address
398,ROOFTOP,"Via Giovanni Paisiello, 42, 10154 Torino TO, Italy",ChIJV_4xd4ltiEcRrT4PRdbgMqY,"V.PAISIELLO 42, TORINO, Italia",45.0908155,7.7010137,1,10154,OK,street_address
399,ROOFTOP,"Via S. Giuseppe Benedetto Cottolengo, 14, 10152 Torino TO, Italy",ChIJV5P03J9tiEcR0LXzbMWxRO4,"V.COTTOLENGO 14, TORINO, Italia",45.0792741,7.680588599999999,1,10152,OK,street_address
400,ROOFTOP,"Via Cumiana, 14, 10141 Torino TO, Italy",ChIJF5GraeZsiEcR8ysAljdMQG4,"V.CUMIANA 14, TORINO, Italia",45.0661666,7.643379299999999,1,10141,OK,street_address
401,ROOFTOP,"Corso Siracusa, 10, 10136 Torino TO, Italy",ChIJ__-vksVsiEcRK_p5wai4oFo,"C.O SIRACUSA 10, TORINO, Italia",45.0547467,7.633800099999999,1,10136,OK,street_address
402,ROOFTOP,"Corso Unione Sovietica, 312, 10135 Torino TO, Italy",ChIJEUq59dgSiEcRbmx6hsp6uhA,"C.O UNIONE SOVIETICA 312, TORINO, Italia",45.031872,7.6446682,1,10135,OK,street_address
403,ROOFTOP,"Via Negarville, 8, 10135 Torino TO, Italy",ChIJYe3Fk24TiEcR_P-U8qN0VvU,"V.NEGARVILLE 30/8, TORINO, Italia",45.0208146,7.611606600000001,1,10135,OK,street_address
404,ROOFTOP,"Via Giovanni Paisiello, 1, 10154 Torino TO, Italy",ChIJAXdj1ohtiEcRoW7jaTN1VTU,"V.PAISIELLO 1, TORINO, Italia",45.0892777,7.6983044,1,10154,OK,street_address
405,ROOFTOP,"Via Livorno, 14, 10144 Torino TO, Italy",ChIJVy88sahtiEcRmxH-vhqBbt0,"V.LIVORNO 14, TORINO, Italia",45.083542,7.667475,1,10144,OK,street_address
406,ROOFTOP,"Corso Casale, 246, 10132 Torino TO, Italy",ChIJHVIE9_ZyiEcRxO7plBO5A94,"C.CASALE 246, TORINO, Italia",45.07298,7.729069999999999,1,10132,OK,street_address
407,ROOFTOP,"Via dei Mille, 19, 10123 Torino TO, Italy",ChIJD5AI5GZtiEcRN2jYKwNcZ34,"V.DEI MILLE 19, TORINO, Italia",45.062107,7.6888973,1,10123,OK,street_address
408,ROOFTOP,"Corso Carlo e Nello Rosselli, 5a, 10128 Torino TO, Italy",ChIJW8HFuTBtiEcR6yzgBJ-2G7M,"CORSO ROSSELLI,108/5/A, TORINO, Italia",45.050703,7.664529199999999,1,10128,OK,street_address
409,ROOFTOP,"Via S. Quintino, 13, 10121 Torino TO, Italy",ChIJ-W6jWhNtiEcRTUrnryUsgCU,"VIA SAN QUINTINO,13f, TORINO, Italia",45.0656078,7.6741112,1,10121,OK,street_address
410,ROOFTOP,"Via Augusto Abegg, 19, 10126 Torino TO, Italy",ChIJaUvl67QSiEcR_yaREwGWsKg,"V.ABEGG 19, TORINO, Italia",45.0403707,7.6719521,1,10126,OK,street_address
411,ROOFTOP,"Via S. Marino, 31, 10134 Torino TO, Italy",ChIJo9mWTtYSiEcRFT_ATZFeoIo,"VIA S.MARINO, 31, TORINO, Italia",45.0367288,7.646859399999999,1,10134,OK,street_address
412,RANGE_INTERPOLATED,"Via delle Verbene, 4, 10151 Torino TO, Italy",Ei1WaWEgZGVsbGUgVmVyYmVuZSwgNCwgMTAxNTEgVG9yaW5vIFRPLCBJdGFsaWEiGhIYChQKEgllAg69E2yIRxGOfV0cqE8QOBAE,"V.VERBENE  4, TORINO, Italia",45.1040976,7.633419300000001,1,10151,OK,street_address
413,ROOFTOP,"Via Gaudenzio Ferrari, 16, 10124 Torino TO, Italy",ChIJ8_gzz3xtiEcRfS7gSjWjxyk,"V.FERRARI 16, TORINO, Italia",45.0688913,7.694338699999999,1,10124,OK,street_address
414,ROOFTOP,"Via Ada Negri, 8, 10121 Torino TO, Italy",ChIJgx7_N9dsiEcRSYjfOf6HKk0,"VIA ADA NEGRI,8, TORINO, Italia",45.0518657,7.643868499999999,1,10121,OK,premise
415,ROOFTOP,"Via Giovanni Plana, 2, 10123 Torino TO, Italy",ChIJa_njx2NtiEcRcAp9_tBJ6t8,"V.PLANA 2, TORINO, Italia",45.0649392,7.693511200000001,1,10123,OK,street_address
416,ROOFTOP,"Via Vittorio Andreis, 18, 10152 Torino TO, Italy",ChIJj4yEap5tiEcRUekvVdR6Sc0,"VIA ANDREIS 18/25, TORINO, Italia",45.0799645,7.682939699999999,1,10152,OK,street_address
417,ROOFTOP,"Via Vestignè, 7, 10155 Torino TO, Italy",ChIJKy7ab5JtiEcRE-0ZgRhzUrU,"VIA VESTIGNE 7, TORINO, Italia",45.0937022,7.692903,1,10155,OK,street_address
418,ROOFTOP,"Corso Regina Margherita, 107, 10122 Torino TO, Italy",ChIJUQl1BHdtiEcRwS_6sa-VniI,"C.so R.MARGHER.107, TORINO, Italia",45.075554,7.6863711,1,10122,OK,street_address
419,ROOFTOP,"Via Sant'Anselmo, 7, 10125 Torino TO, Italy",ChIJBTYxK2htiEcRNmkQwO_w6aY,"VIA S.ANSELMO, 7, TORINO, Italia",45.0601146,7.681794099999999,1,10125,OK,street_address
420,ROOFTOP,"Via Giacinto Pacchiotti, 116, 10146 Torino TO, Italy",ChIJ5aeBqYhsiEcRpbuB76fpWts,"VIA PACCHIOTTI,116, TORINO, Italia",45.0783221,7.6226369,1,10146,OK,street_address
421,ROOFTOP,"Via Giovanni Migliara, 7, 10143 Torino TO, Italy",ChIJN4M0igBtiEcRjlnl_XJxiYE,"V.MIGLIARA 7, TORINO, Italia",45.0792503,7.6590957,1,10143,OK,street_address
422,GEOMETRIC_CENTER,"Corso Trento, 10129 Torino TO, Italy",ChIJvczQcz1tiEcRpuW2MjnIBME,"CORSO TRENTO, TORINO, Italia",45.0602043,7.664555599999999,1,10129,OK,route
423,ROOFTOP,"Strada Comunale Val S. Martino Superiore, 24, 10131 Torino TO, Italy",ChIJR8DUNZNyiEcR6MMqSOUjK3M,"STR.VAL S.MARTINO 24, TORINO, Italia",45.063437,7.718611600000001,2,10131,OK,street_address
424,ROOFTOP,"Via Val della Torre, 61, 10149 Torino TO, Italy",ChIJEelej0xsiEcRJpUv2-hJJa0,"V.VAL DELLA TORRE 61, TORINO, Italia",45.09383510000001,7.657329900000001,1,10149,OK,street_address
425,ROOFTOP,"Via Assietta, 17, 10128 Torino TO, Italy",ChIJ4ZwX2BRtiEcRQnZyrWxT1LU,"V.ASSIETTA 17, TORINO, Italia",45.0628038,7.6732084,1,10128,OK,street_address
426,ROOFTOP,"Via Sant'Anselmo, 7, 10125 Torino TO, Italy",ChIJBTYxK2htiEcRNmkQwO_w6aY,"V.S.ANSELMO 7, TORINO, Italia",45.0601146,7.681794099999999,1,10125,OK,street_address
427,ROOFTOP,"Corso Peschiera, 364A, 10139 Torino TO, Italy",ChIJySyQ_I1siEcRzQ9e3BBOf5g,"C.SO PESCHIERA 364/A, TORINO, Italia",45.0735823,7.6271494,1,10139,OK,street_address
428,ROOFTOP,"Via S. Pio V, 11, 10125 Torino TO, Italy",ChIJu29jI2htiEcRIqlM4LOwsoY,"VIA SAN PIO V,11, TORINO, Italia",45.0603237,7.6828878,1,10125,OK,street_address
429,ROOFTOP,"Via Pianezza, 110, 10151 Torino TO, Italy",ChIJ21BIdUZsiEcRhOmZw9-Qg8Q,"V.PIANEZZA 110, TORINO, Italia",45.0951425,7.647912600000001,1,10151,OK,street_address
430,ROOFTOP,"Via S. Paolo, 50, 10141 Torino TO, Italy",ChIJ49ln1d9siEcRklJK_aqnCTE,"V.S.PAOLO 50, TORINO, Italia",45.0621729,7.648972,1,10141,OK,street_address
431,ROOFTOP,"Via Desana, 18, 10155 Torino TO, Italy",ChIJkQaINpNtiEcRKqVuRr9ZmcE,"V.DESANA 18, TORINO, Italia",45.096683,7.6903834,1,10155,OK,street_address
432,ROOFTOP,"Corso Moncalieri, 218, 10133 Torino TO, Italy",ChIJKeuY2qwSiEcR5N0-27fUP88,"C.so MONCALIERI 218, TORINO, Italia",45.0404589,7.6826157,1,10133,OK,street_address
433,ROOFTOP,"Via Madama Cristina, 134, 10126 Torino TO, Italy",ChIJRc-WDEttiEcRMFxPmI_FEqM,"V.Madama Cristina 134, TORINO, Italia",45.0436551,7.672881800000001,1,10126,OK,street_address
434,ROOFTOP,"Via Leonardo da Vinci, 8, 10126 Torino TO, Italy",ChIJ2y-LfDVtiEcRCVDWsex0XSI,"V.L.DA VINCI 8, TORINO, Italia",45.0439118,7.668515399999999,1,10126,OK,street_address
435,ROOFTOP,"Corso Moncalieri, 52a, 10123 Torino TO, Italy",ChIJw-ZAH19tiEcRMmVbJfQZsFU,"C.Moncalieri,52a- Via S.Massimo,21 bis, TORINO, Italia",45.05592,7.6917475,2,10123,OK,"establishment,point_of_interest,school"
436,ROOFTOP,"Corso Massimo d'Azeglio, 17, 10126 Torino TO, Italy",ChIJTyfl0E9tiEcRibTNkynKdhg,"C.SO M.D'AZEGLIO 17, TORINO, Italia",45.0485412,7.6814458,1,10126,OK,street_address
437,ROOFTOP,"Via Giuseppe Maria Bonzanigo, 8, 10144 Torino TO, Italy",ChIJv7vOi6dtiEcRWw2W9fnK9DM,"V.BONZANIGO 8, TORINO, Italia",45.0797294,7.669224099999999,1,10144,OK,premise
438,ROOFTOP,"Via Cumiana, 2, 10141 Torino TO, Italy",ChIJGVMDcOZsiEcRXqatNB-KClA,"V.CUMIANA 2, TORINO, Italia",45.0665866,7.643653599999999,1,10141,OK,street_address
439,ROOFTOP,"Viale Enrico Thovez, 37, 10131 Torino TO, Italy",ChIJ93EYh6NyiEcRol9bOnpHge0,"V.LE THOVEZ 37, TORINO, Italia",45.0543984,7.702055000000001,1,10131,OK,street_address
440,ROOFTOP,"Via Gaspare Gorresio, 13, 10149 Torino TO, Italy",ChIJN_5k7jVsiEcRlUwUQEJEg8M,"V.GORRESIO 13, TORINO, Italia",45.0998603,7.6572,1,10149,OK,street_address
441,ROOFTOP,"Via Massena, 36, 10128 Torino TO, Italy",ChIJYd_w5j9tiEcRDXl-PBdoZ_k,"V.MASSENA 36, TORINO, Italia",45.0605335,7.6724331,1,10128,OK,street_address
442,ROOFTOP,"Via Edoardo Rubino, 77a, 10137 Torino TO, Italy",ChIJjWFK_UgTiEcRlkw9vhX16iQ,"V.RUBINO 77/A, TORINO, Italia",45.0382143,7.6194618,1,10137,OK,street_address
443,ROOFTOP,"Piazza Maria Ausiliatrice, 27, 10152 Torino TO, Italy",ChIJvfz-kaBtiEcRNRa6pcg86uQ,"P.ZZA M.AUSILIATRICE,27, TORINO, Italia",45.0802609,7.675251599999999,1,10152,OK,street_address
444,ROOFTOP,"Viale Enrico Thovez, 37, 10131 Torino TO, Italy",ChIJ93EYh6NyiEcRol9bOnpHge0,"V.LE THOVEZ 37, TORINO, Italia",45.0543984,7.702055000000001,1,10131,OK,street_address
445,ROOFTOP,"Piazza Maria Ausiliatrice, 27, 10152 Torino TO, Italy",ChIJvfz-kaBtiEcRNRa6pcg86uQ,"P.za M.AUSILIATRICE 27, TORINO, Italia",45.0802609,7.675251599999999,1,10152,OK,street_address
446,ROOFTOP,"Corso Moncalieri, 52a, 10123 Torino TO, Italy",ChIJCbHE4V5tiEcRSoxsuSwUkH0,"CORSO MONCALIERI52/A, TORINO, Italia",45.05592,7.6917475,1,10123,OK,street_address
447,ROOFTOP,"Via Cavour, 45, 10123 Torino TO, Italy",ChIJdZMSGWFtiEcR0P8dKufgIzA,"V.CAVOUR 45/D, TORINO, Italia",45.0619535,7.692282199999999,1,10123,OK,street_address
448,ROOFTOP,"Corso Moncalieri, 48, 10133 Torino TO, Italy",ChIJV_erB19tiEcRP6GhdRZzVjo,"C.SO MONCALIERI 48, TORINO, Italia",45.05671,7.692550000000001,1,10133,OK,street_address
449,RANGE_INTERPOLATED,"Piazza Giuseppe Manno, 22, 10151 Torino TO, Italy",EjJQaWF6emEgR2l1c2VwcGUgTWFubm8sIDIyLCAxMDE1MSBUb3Jpbm8gVE8sIEl0YWxpYSIaEhgKFAoSCZUi8RgxbIhHEQGupRsaKvRSEBY,"P.za MANNO 22, TORINO, Italia",45.1051159,7.6554132,1,10151,OK,street_address
450,ROOFTOP,"Via Gattinara, 7, 10153 Torino TO, Italy",ChIJnfJEVoZyiEcRjUjRT_oErl8,"V.GATTINARA 7, TORINO, Italia",45.0741942,7.7080074,1,10153,OK,premise
451,ROOFTOP,"Via Ala di Stura, 23, 10147 Torino TO, Italy",ChIJ21nLcMJtiEcRd2sBipqbBic,"V.ALA DI STURA 23, TORINO, Italia",45.1036861,7.6846174,1,10147,OK,street_address
452,ROOFTOP,"Via Giacinto Collegno, 65, 10138 Torino TO, Italy",ChIJqRkZcwNtiEcRG5nmfz5nBnE,"V.COLLEGNO 65, TORINO, Italia",45.07278669999999,7.658781100000001,1,10138,OK,street_address
453,ROOFTOP,"Via Zubiena, 4, 10147 Torino TO, Italy",ChIJu6Bf5MttiEcRZQL90x4Nkno,"V.ZUBIENA 4, TORINO, Italia",45.1024071,7.6676005,1,10147,OK,street_address
454,ROOFTOP,"Via Sospello, 64, 10147 Torino TO, Italy",ChIJ_xHTS89tiEcRyhhtvnK_qE4,"V.SOSPELLO 64, TORINO, Italia",45.1028132,7.671659399999999,1,10147,OK,street_address
455,ROOFTOP,"Corso Lucio Quinzio Cincinnato, 200, 10151 Torino TO, Italy",ChIJC1aMrTlsiEcR_IDSN0pIq4w,"C.so CINCINNATO 200, TORINO, Italia",45.10221960000001,7.6491504,1,10151,OK,street_address
456,ROOFTOP,"Via Vincenzo Gioberti, 9, 10128 Torino TO, Italy",ChIJBwkF2mptiEcR2MImPp9Lo7k,"V.GIOBERTI,9, TORINO, Italia",45.0624128,7.6747489,1,10128,OK,street_address
457,ROOFTOP,"Via Magenta, 29, 10128 Torino TO, Italy",ChIJSwiibRRtiEcRPWbzeFfYw90,"V.MAGENTA 29, TORINO, Italia",45.0645414,7.671005699999999,1,10128,OK,street_address
458,ROOFTOP,"Via Giovanni da Verazzano, 58, 10129 Torino TO, Italy",ChIJA_MoHSRtiEcR5u-F3vG3whc,"V.G.DA VERAZZANO 58, TORINO, Italia",45.0563496,7.655816799999999,1,10129,OK,street_address
459,ROOFTOP,"Via Vincenzo Gioberti, 33, 10128 Torino TO, Italy",ChIJJaOv8D9tiEcRDchie5d0ZO0,"V.GIOBERTI, 33, TORINO, Italia",45.0596979,7.6729059,1,10128,OK,street_address
460,ROOFTOP,"Via S. Donato, 17, 10144 Torino TO, Italy",ChIJE-CA7wdtiEcRVimSsrkMkY4,"V.S.DONATO 17, TORINO, Italia",45.0790453,7.6665765,1,10144,OK,premise
461,ROOFTOP,"Via Lombardore, 27, 10154 Torino TO, Italy",ChIJiRxA2I9tiEcR5i4DjcJkzos,"V.LOMBARDORE 27, TORINO, Italia",45.0891182,7.6923384,1,10154,OK,street_address
462,ROOFTOP,"Via Vestignè, 7, 10155 Torino TO, Italy",ChIJKy7ab5JtiEcRE-0ZgRhzUrU,"VIA VESTIGNE', 7, TORINO, Italia",45.0937022,7.692903,1,10155,OK,street_address
463,ROOFTOP,"Via Sandro Botticelli, 11, 10155 Torino TO, Italy",ChIJqQ70NvBtiEcRtSqR8lKDfFU,"V.BOTTICELLI 11/15, TORINO, Italia",45.1036586,7.697421599999999,1,10155,OK,street_address
464,ROOFTOP,"Via Tronzano, 20, 10155 Torino TO, Italy",ChIJoemSdvJtiEcRZwfajRJ97Og,"V.TRONZANO 20, TORINO, Italia",45.09973,7.695480000000001,1,10155,OK,street_address
465,ROOFTOP,"Corso Giovanni Agnelli, 20, 10137 Torino TO, Italy",ChIJpYD6PdUSiEcRnI_sXbP4CRg,"CORSO AGNELLI,20 C, TORINO, Italia",45.0422573,7.6479633,1,10137,OK,street_address
466,ROOFTOP,"Via Giulio Biglieri, 30, 10126 Torino TO, Italy",ChIJ_4o-ObcSiEcReYSqJM5dE2g,"V.GIULIO 30, TORINO, Italia",45.0338554,7.6709228,3,10126,OK,street_address
467,RANGE_INTERPOLATED,"Via Modesto Paroletti, 15, 10154 Torino TO, Italy",EjJWaWEgTW9kZXN0byBQYXJvbGV0dGksIDE1LCAxMDE1NCBUb3Jpbm8gVE8sIEl0YWxpYSIaEhgKFAoSCaM3NRZycohHEYTv-8wxCN2aEA8,"V.PAROLETTI 15, TORINO, Italia",45.091337,7.714408199999999,1,10154,OK,street_address
468,ROOFTOP,"Via Varallo, 33, 10153 Torino TO, Italy",ChIJR-vExI5yiEcRs-ibD5ItJLM,"V.VARALLO 33, TORINO, Italia",45.0712295,7.7136722,1,10153,OK,street_address
469,RANGE_INTERPOLATED,"Piazza Pietro Francesco Guala, 140, 10135 Torino TO, Italy",EjtQaWF6emEgUGlldHJvIEZyYW5jZXNjbyBHdWFsYSwgMTQwLCAxMDEzNSBUb3Jpbm8gVE8sIEl0YWxpYSIbEhkKFAoSCSO23tzhEohHEZq2Ec-zYCOvEIwB,"P.za GUALA 140, TORINO, Italia",45.0218316,7.6414943,1,10135,OK,street_address
470,ROOFTOP,"Corso Francia, 139, 10138 Torino TO, Italy",ChIJUecjN_psiEcRqjCBmtzAyGY,"C.SO FRANCIA 139, TORINO, Italia",45.0754119,7.6463684,1,10138,OK,street_address
471,ROOFTOP,"Via Moretta, 57, 10139 Torino TO, Italy",ChIJ50DVZONsiEcRLIft6S5khUs,"V.MORETTA, 57, TORINO, Italia",45.06978,7.648630000000001,1,10139,OK,street_address
472,ROOFTOP,"Via Carlo Pisacane, 71, 10127 Torino TO, Italy",ChIJ-UBzpfoSiEcRDDwQd0ioiUA,"V.PISACANE 71, TORINO, Italia",45.0145123,7.649449700000001,1,10127,OK,street_address
473,ROOFTOP,"Via Cambiano, 10, 10149 Torino TO, Italy",ChIJHxxm67ttiEcRUUqi0uzt6xc,"V.CAMBIANO 10, TORINO, Italia",45.0922598,7.675443,1,10149,OK,street_address
474,ROOFTOP,"Via Assisi, 45, 10149 Torino TO, Italy",ChIJC940krZtiEcR-h9BpyOXyQw,"V.ASSISI 45, TORINO, Italia",45.0954544,7.6675016,1,10149,OK,street_address
475,ROOFTOP,"Via Monte Cristallo, 9, 10141 Torino TO, Italy",ChIJ6ek2ZsBsiEcRM_Qw62GpGls,"V.Monte Cristallo 9, TORINO, Italia",45.06155,7.630370000000001,1,10141,OK,street_address
476,ROOFTOP,"Via Giuseppe Vernazza, 41, 10136 Torino TO, Italy",ChIJf9dTdtVsiEcR2fE710ozgPM,"V.VERNAZZA 41, TORINO, Italia",45.0457477,7.6463411,1,10136,OK,street_address
477,ROOFTOP,"Via Bruino, 14, 10138 Torino TO, Italy",ChIJV9gc9v1siEcRz6NDBt6abjY,"V.BRUINO 14, TORINO, Italia",45.075036,7.6550215,1,10138,OK,street_address
478,ROOFTOP,"Via Angelo Messedaglia, 7, 10149 Torino TO, Italy",ChIJPy2svkpsiEcR7Qa26lqAjFw,"V.MESSEDAGLIA 7, TORINO, Italia",45.0980506,7.6601353,1,10149,OK,street_address
479,ROOFTOP,"Via Reiss Romoli, 49, 10148 Torino TO, Italy",ChIJ-03E3-VtiEcRv-_SbpqHLhw,"V.REISS ROMOLI 49, TORINO, Italia",45.107434,7.691867199999999,1,10148,OK,street_address
480,ROOFTOP,"Via Michele Coppino, 147, 10147 Torino TO, Italy",ChIJDVLb7MhtiEcRWi2BOhzlg3U,"V.COPPINO 147, TORINO, Italia",45.1012969,7.671873,1,10147,OK,street_address
481,ROOFTOP,"Via Santa Maria Mazzarello, 102, 10142 Torino TO, Italy",ChIJwVagoLhsiEcRPxi5mv5IwOQ,"V.S.M.Mazzarello 102, TORINO, Italia",45.0578699,7.6281912,1,10142,OK,street_address
482,ROOFTOP,"Via Brissogne, 39, 10142 Torino TO, Italy",ChIJVVUlk6JsiEcRcrfzhpP-FPc,"V.BRISSOGNE 39, TORINO, Italia",45.0631554,7.616592300000001,1,10142,OK,street_address
483,ROOFTOP,"Via Giuseppe Maria Bonzanigo, 8, 10144 Torino TO, Italy",ChIJv7vOi6dtiEcRWw2W9fnK9DM,"V.BONZANIGO 8, TORINO, Italia",45.0797294,7.669224099999999,1,10144,OK,premise
484,ROOFTOP,"Corso Unione Sovietica, 312, 10135 Torino TO, Italy",ChIJEUq59dgSiEcRbmx6hsp6uhA,"C.O UNIONE SOVIETICA 312, TORINO, Italia",45.031872,7.6446682,1,10135,OK,street_address
485,ROOFTOP,"Via delle Primule, 36, 10151 Torino TO, Italy",ChIJSct37AxsiEcRzHOHM34T4NY,"VIA PRIMULE 36/C, TORINO, Italia",45.1026836,7.625600100000001,1,10151,OK,street_address
486,ROOFTOP,"Via S. Francesco da Paola, 23, 10123 Torino TO, Italy",ChIJp3LLHWZtiEcRj8_ARZwKPQ8,"V.S.F.da PAOLA 23, TORINO, Italia",45.06354049999999,7.686222,2,10123,OK,street_address
487,ROOFTOP,"Via della Consolata, 20, 10122 Torino TO, Italy",ChIJ_Qt1PHVtiEcRlYhkihEAtqo,"V.CONSOLATA 20, TORINO, Italia",45.0776254,7.6792962,2,10122,OK,street_address
488,ROOFTOP,"Corso Unione Sovietica, 170, 10134 Torino TO, Italy",ChIJNXCR7tISiEcRwUBZOTTPeag,"C.so U.SOVIETICA 170, TORINO, Italia",45.041349,7.655392999999999,1,10134,OK,street_address
489,ROOFTOP,"Via Baltimora, 64, 10137 Torino TO, Italy",ChIJNfN-vNRsiEcRmbwaor3rf20,"V.BALTIMORA 64, TORINO, Italia",45.04469,7.642259999999999,1,10137,OK,street_address
490,ROOFTOP,"Via Edoardo Rubino, 82, 10137 Torino TO, Italy",ChIJt_wi60kTiEcRbkyjQHg_U1I,"V.RUBINO 82, TORINO, Italia",45.03946699999999,7.6219512,1,10137,OK,street_address
491,ROOFTOP,"Via Cumiana, 2, 10141 Torino TO, Italy",ChIJGVMDcOZsiEcRXqatNB-KClA,"V.CUMIANA 2, TORINO, Italia",45.0665866,7.643653599999999,1,10141,OK,street_address
492,ROOFTOP,"Via Giovanni Servais, 135, 10146 Torino TO, Italy",ChIJpeskFX1siEcRvR70pUvm5lo,"V.SERVAIS 135, TORINO, Italia",45.0839071,7.622486500000001,1,10146,OK,street_address
493,ROOFTOP,"Via Rubiana, 8, 10139 Torino TO, Italy",ChIJTaE0nPFsiEcRd9a1l6FoUvI,"VIA RUBIANA,8, TORINO, Italia",45.0744994,7.6388995,1,10139,OK,street_address
494,GEOMETRIC_CENTER,"Via Gino Marinuzzi Musicista, 10156 Torino TO, Italy",ChIJPRhyOgJuiEcRwd8zg89qv3Y,"V.MARINUZZI 10, TORINO, Italia",45.1190304,7.707925500000001,1,10156,OK,route
495,RANGE_INTERPOLATED,"Via Rocco Scotellaro, 19, 10155 Torino TO, Italy",EjFWaWEgUm9jY28gU2NvdGVsbGFybywgMTksIDEwMTU1IFRvcmlubyBUTywgSXRhbGlhIhoSGAoUChIJeRMuDvptiEcR1p_qiL2JsMQQEw,"V.SCOTELLARO 19, TORINO, Italia",45.1061907,7.7019487,1,10155,OK,street_address
496,ROOFTOP,"Via Verbano, 6, 10153 Torino TO, Italy",ChIJn5Nr8l9yiEcRIUxAdxXP578,"V.VERBANO 6, TORINO, Italia",45.07622420000001,7.7233578,1,10153,OK,street_address
497,ROOFTOP,"Via degli Artisti, 4, 10124 Torino TO, Italy",ChIJ6Xs19XxtiEcRP_2AS98an-4,"V.ARTISTI 4, TORINO, Italia",45.0707276,7.6944075,1,10124,OK,street_address
498,ROOFTOP,"Via Piedicavallo, 5, 10145 Torino TO, Italy",ChIJ76DqxPBsiEcR6oc8o2iLOQA,"V.PIEDICAVALLO 5, TORINO, Italia",45.0757495,7.642177200000001,1,10145,OK,premise
499,ROOFTOP,"Via Vittorio Asinari di Bernezzo, 23, 10145 Torino TO, Italy",ChIJ0VK-SvRsiEcRymROgVmOAGI,"V.A.BERNEZZO 23, TORINO, Italia",45.0792282,7.638008999999999,1,10145,OK,street_address
500,ROOFTOP,"Via Valgioie, 10, 10146 Torino TO, Italy",ChIJ0c-bW_NsiEcRGl1gLW1SrYw,"V.VALGIOIE 10, TORINO, Italia",45.0767996,7.634240900000001,1,10146,OK,street_address
501,ROOFTOP,"Via Michele Lessona, 70, 10145 Torino TO, Italy",ChIJByct2lhsiEcRvU9TMmZgxnQ,"V.LESSONA 70, TORINO, Italia",45.083437,7.642020899999999,1,10145,OK,street_address
502,ROOFTOP,"Via Giuseppe Romita, 19, 10137 Torino TO, Italy",ChIJ3z9zccpsiEcRV-lDHkG0lwM,"V.ROMITA 19, TORINO, Italia",45.0480534,7.626065400000001,1,10137,OK,premise
503,ROOFTOP,"Via dell'Asilo, 3, 10133 Torino TO, Italy",ChIJQQM_eqcSiEcRuqW6M21LPPg,"V.ASILO 3, TORINO, Italia",45.02872,7.68664,1,10133,OK,street_address
504,ROOFTOP,"Via Nizza, 22f, 10125 Torino TO, Italy",ChIJCX0bOUFtiEcRaITySFO4WZ4,"V.NIZZA 22/F, TORINO, Italia",45.0563622,7.676374399999999,1,10125,OK,street_address
505,ROOFTOP,"Str. dei Ronchi, 27, 10133 Torino TO, Italy",ChIJ7SDxpFkNiEcRiz1A0JSxtBs,"Str.RONCHI 27, TORINO, Italia",45.02924,7.691090000000001,1,10133,OK,street_address
506,ROOFTOP,"Via Val Lagarina, 23, 10142 Torino TO, Italy",ChIJDcY2EZ1siEcR76cJasy_IfY,"V.VAL LAGARINA 23, TORINO, Italia",45.0724867,7.6116759,1,10142,OK,street_address
507,ROOFTOP,"Str. Bertolla, 74, 10156 Torino TO, Italy",ChIJHw0bezFyiEcR8e9VsJBerFk,"Str.BERTOLLA 74, TORINO, Italia",45.09977,7.74508,1,10156,OK,street_address
508,ROOFTOP,"Via Isler Ignazio, 15, 10135 Torino TO, Italy",ChIJzTxX4BwTiEcRIcL0FIoSxmk,"V.ISLER 15, TORINO, Italia",45.01730999999999,7.63666,1,10135,OK,street_address
509,ROOFTOP,"Via Giorgio Bidone, 33, 10125 Torino TO, Italy",ChIJf6imFkVtiEcRV6phpa4KiJg,"VIA BIDONE 33, TORINO, Italia",45.0521526,7.680714099999999,1,10125,OK,street_address
510,ROOFTOP,"Via Sant'Anselmo, 7, 10125 Torino TO, Italy",ChIJBTYxK2htiEcRNmkQwO_w6aY,"V.S.ANSELMO 7, TORINO, Italia",45.0601146,7.681794099999999,1,10125,OK,street_address
511,ROOFTOP,"Piazzeta Luciano Jona, 6, 10135 Torino TO, Italy",ChIJh4lctG0TiEcRzf-4NU1yu4c,"Piazzetta  JONA 6, TORINO, Italia",45.0197069,7.614037,1,10135,OK,street_address
512,ROOFTOP,"Via Tollegno, 21, 10154 Torino TO, Italy",ChIJbSGaS4ZtiEcRHFHeojatoPQ,"V.TOLLEGNO 21, TORINO, Italia",45.0852611,7.698906299999999,1,10154,OK,street_address
513,ROOFTOP,"Via Graziadio Ascoli, 38, 10144 Torino TO, Italy",ChIJ4QRbbK9tiEcRoTGQ6xUz-oc,"V.ASCOLI 38, TORINO, Italia",45.0858932,7.6679975,1,10144,OK,street_address
514,ROOFTOP,"Via Montemagno, 59, 10132 Torino TO, Italy",ChIJ_1rRf41yiEcR8IXQs-6GTuQ,"VIA MONTEMAGNO , 59, TORINO, Italia",45.0670313,7.7170481,1,10132,OK,street_address
515,ROOFTOP,"Corso Bramante, 72, 10126 Torino TO, Italy",ChIJwdZav0ptiEcRhuwlvz3iBg0,"Str.MONGRENO 72, TORINO, Italia",45.0426551,7.6702007,1,10126,OK,street_address
516,ROOFTOP,"Via Saluzzo, 27, 10125 Torino TO, Italy",ChIJWdcm00NtiEcRh3e19i2NN6g,"V.SALUZZO 27, TORINO, Italia",45.0577424,7.678642699999999,1,10125,OK,premise
517,GEOMETRIC_CENTER,"Via S. Tommaso, Torino TO, Italy",ChIJZcQJIXJtiEcRVTLJmE1ZY-I,"V.PR.TOMMASO 25, TORINO, Italia",45.0706235,7.6816276,2,,OK,route
518,RANGE_INTERPOLATED,"Via Rodolfo Bettazzi, 6, 10148 Torino TO, Italy",EjBWaWEgUm9kb2xmbyBCZXR0YXp6aSwgNiwgMTAxNDggVG9yaW5vIFRPLCBJdGFsaWEiGhIYChQKEglFQvTgwm2IRxEciCVVZaHOFBAG,"V.R.BETTAZZI 6, TORINO, Italia",45.105832,7.683307500000001,1,10148,OK,street_address
519,ROOFTOP,"Via Giorgio Bidone, 33, 10125 Torino TO, Italy",ChIJf6imFkVtiEcRV6phpa4KiJg,"V.BIDONE  33, TORINO, Italia",45.0521526,7.680714099999999,1,10125,OK,street_address
520,ROOFTOP,"Viale Giacomo Curreno, 21, 10133 Torino TO, Italy",ChIJOZlYUqdyiEcRtzRSMi0BGYk,"V.G.CURRENO 21, TORINO, Italia",45.0541454,7.6947132,1,10133,OK,street_address
521,ROOFTOP,"Via Lodovica, 2, 10131 Torino TO, Italy",ChIJXcUiApxyiEcRuzjJg8IF_3A,"V.LODOVICA 2, TORINO, Italia",45.0632314,7.7016606,1,10131,OK,street_address
522,ROOFTOP,"Via Andrea Sansovino, 111, 10151 Torino TO, Italy",ChIJH26wWD5siEcRXTM6xCv2NSI,"V.SANSOVINO 111, TORINO, Italia",45.1032902,7.6429124,1,10151,OK,street_address
523,ROOFTOP,"Via Forno Canavese, 5, 10136 Torino TO, Italy",ChIJZSgtictsiEcRMo4BRf4PZpI,"V.Forno Canavese 5, TORINO, Italia",45.04768,7.63069,1,10136,OK,street_address
524,ROOFTOP,"Via S. Donato, 31, 10144 Torino TO, Italy",ChIJBQvfKqhtiEcRLG_N1pUIY4M,"V.S.DONATO 31, TORINO, Italia",45.0799537,7.6649722,1,10144,OK,street_address
525,RANGE_INTERPOLATED,"Via Giovanni Boccaccio, 59, 10132 Torino TO, Italy",EjNWaWEgR2lvdmFubmkgQm9jY2FjY2lvLCA1OSwgMTAxMzIgVG9yaW5vIFRPLCBJdGFsaWEiGhIYChQKEgmxqxTI83KIRxEVRX5EY2F3qRA7,"VIA BOCCACCIO,59, TORINO, Italia",45.0695285,7.725077799999999,1,10132,OK,street_address
526,ROOFTOP,"Corso Duca degli Abruzzi, 50, 10129 Torino TO, Italy",ChIJtd-jBCNtiEcRrX9Q2wtYxvk,"C.so D.ABRUZZI 50, TORINO, Italia",45.0586542,7.6596595,1,10129,OK,street_address
527,RANGE_INTERPOLATED,"Corso Benedetto Croce, 21, 10135 Torino TO, Italy",EjJDb3JzbyBCZW5lZGV0dG8gQ3JvY2UsIDIxLCAxMDEzNSBUb3Jpbm8gVE8sIEl0YWxpYSIaEhgKFAoSCePj6OHjEohHEbgqZla1DNnSEBU,"C.so CROCE 21, TORINO, Italia",45.0202534,7.6448737,1,10135,OK,street_address
528,ROOFTOP,"Via Sforzesca, 10, 10131 Torino TO, Italy",ChIJIbBpP6ByiEcRXEStDXza1R8,"V.SFORZESCA 10, TORINO, Italia",45.0577796,7.696733800000001,1,10131,OK,street_address
529,ROOFTOP,"Via Giovanni Fattori, 113, 10141 Torino TO, Italy",ChIJAaZNJJJsiEcRivcFkWaCdT8,"V.FATTORI,  113, TORINO, Italia",45.0714026,7.6267158,1,10141,OK,street_address
530,RANGE_INTERPOLATED,"Via Fontanella, 9, 10147 Torino TO, Italy",EipWaWEgRm9udGFuZWxsYSwgOSwgMTAxNDcgVG9yaW5vIFRPLCBJdGFsaWEiGhIYChQKEgllPhICv22IRxFDoZSRYn9TQRAJ,"VIA FONTANELLA 9/11, TORINO, Italia",45.0954005,7.680098399999999,1,10147,OK,street_address
531,ROOFTOP,"Via Giuseppe Giusti, 6, 10121 Torino TO, Italy",ChIJd0yaIRBtiEcR9TNBTw_i_J4,"VIA GIUSTI 6, TORINO, Italia",45.0701018,7.666435499999999,1,10121,OK,premise
532,ROOFTOP,"Corso Unione Sovietica, 312, 10135 Torino TO, Italy",ChIJEUq59dgSiEcRbmx6hsp6uhA,"CORSO UNIONE SOVIETICA, 312, TORINO, Italia",45.031872,7.6446682,1,10135,OK,street_address
533,ROOFTOP,"Via Grazia Deledda, 9, 10153 Torino TO, Italy",ChIJ2979vIpyiEcRyHKfurB9Lz4,"V.DELEDDA 9, TORINO, Italia",45.07531789999999,7.7209441,1,10153,OK,premise
534,ROOFTOP,"Via Giovanni Servais, 62, 10146 Torino TO, Italy",ChIJU1V7pWFsiEcR781XQjHnOzQ,"V.SERVAIS 62, TORINO, Italia",45.0839396,7.631672399999999,1,10146,OK,street_address
535,ROOFTOP,"Via Valentino Carrera, 23, 10146 Torino TO, Italy",ChIJ_3NyJPVsiEcRQWWh7kkQnw4,"V.CARRERA 23, TORINO, Italia",45.0798699,7.6350926,1,10146,OK,street_address
536,ROOFTOP,"Via Pasquale Paoli, 75, 10134 Torino TO, Italy",ChIJB0OFcdoSiEcR5lB6Yk8o-Yo,"V.PAOLI 75, TORINO, Italia",45.0332958,7.651767,1,10134,OK,street_address
537,ROOFTOP,"Via Domenico Guidobono, 2, 10137 Torino TO, Italy",ChIJ9eux2UgTiEcRHdcyjUZOH_0,"V.GUIDOBONO 2, TORINO, Italia",45.0381925,7.6181788,1,10137,OK,street_address
538,ROOFTOP,"Corso Giacomo Matteotti, 48, 10121 Torino TO, Italy",ChIJCVHTEBBtiEcRPPxH-EBRsXc,"C.SO MATTEOTTI 48, TORINO, Italia",45.069846,7.665603900000001,1,10121,OK,street_address
539,ROOFTOP,"Via dei Pioppi, 15, 10156 Torino TO, Italy",ChIJoS5ASBxuiEcRhdSMrFcS_Oc,"V.PIOPPI 15, TORINO, Italia",45.1270599,7.7106917,1,10156,OK,street_address
540,ROOFTOP,"Via Vincenzo Steffenone, 25, 10134 Torino TO, Italy",ChIJ1RjkNzNtiEcRWlNyUGbH3Wk,"VIA STEFFENONE 25/29, TORINO, Italia",45.0430138,7.6618088,1,10134,OK,street_address
541,APPROXIMATE,"Turin, Metropolitan City of Turin, Italy",ChIJJb4YZBJtiEcRv3ec1gP4A4k,"C.so U.SOVIET.223, TORINO, Italia",45.070312,7.686856499999999,1,,OK,"locality,political"
542,RANGE_INTERPOLATED,"Via Germonio, 35, 10095 Torino TO, Italy",EilWaWEgR2VybW9uaW8sIDM1LCAxMDA5NSBUb3Jpbm8gVE8sIEl0YWxpYSIaEhgKFAoSCWEbMAKfbIhHEZCbvPOTOnGtECM,"V.GERMONIO 35, TORINO, Italia",45.0674538,7.611256799999999,1,10095,OK,street_address
543,APPROXIMATE,"Turin, Metropolitan City of Turin, Italy",ChIJJb4YZBJtiEcRv3ec1gP4A4k,"V.VITT.BOLOGNA 10, TORINO, Italia",45.070312,7.686856499999999,1,,OK,"locality,political"
544,ROOFTOP,"Str. Castello di Mirafiori, 46, 10135 Torino TO, Italy",ChIJD6Cz3gUTiEcR2i0FG4Akvow,"Str. MIRAFIORI 46, TORINO, Italia",45.0121,7.6288,1,10135,OK,street_address
545,ROOFTOP,"32, Via Barletta, 109, 10136 Torino TO, Italy",ChIJNeI0Dc5siEcRR9ESS8VTuyI,"V.BARLETTA 109, TORINO, Italia",45.0492871,7.635713699999999,1,10136,OK,street_address
546,ROOFTOP,"Via Massena, 36, 10128 Torino TO, Italy",ChIJYd_w5j9tiEcRDXl-PBdoZ_k,"V.MASSENA 36, TORINO, Italia",45.0605335,7.6724331,1,10128,OK,street_address
547,ROOFTOP,"Piazza Maria Ausiliatrice, 27, 10152 Torino TO, Italy",ChIJvfz-kaBtiEcRNRa6pcg86uQ,"P.ZA M.AUSILIATRICE 27, TORINO, Italia",45.0802609,7.675251599999999,1,10152,OK,street_address
548,ROOFTOP,"Via Cumiana, 2, 10141 Torino TO, Italy",ChIJGVMDcOZsiEcRXqatNB-KClA,"VIA CUMIANA 2, TORINO, Italia",45.0665866,7.643653599999999,1,10141,OK,street_address
549,ROOFTOP,"Via Giorgio Bidone, 33, 10125 Torino TO, Italy",ChIJf6imFkVtiEcRV6phpa4KiJg,"VIA  BIDONE 33, TORINO, Italia",45.0521526,7.680714099999999,1,10125,OK,street_address
550,ROOFTOP,"Corso Siracusa, 10, 10136 Torino TO, Italy",ChIJ__-vksVsiEcRK_p5wai4oFo,"CORSO SIRACUSA, 10, TORINO, Italia",45.0547467,7.633800099999999,1,10136,OK,street_address
551,ROOFTOP,"Via Cumiana, 14, 10141 Torino TO, Italy",ChIJF5GraeZsiEcR8ysAljdMQG4,"VIA CUMIANA 14, TORINO, Italia",45.0661666,7.643379299999999,1,10141,OK,street_address
552,ROOFTOP,"Via Rosolino Pilo, 24, 10143 Torino TO, Italy",ChIJ7YG5DflsiEcR9AoUe7-Na9k,"VIA ROSALINO PILO, 24, TORINO, Italia",45.0780726,7.648128799999999,1,10143,OK,street_address
553,ROOFTOP,"Viale Enrico Thovez, 37, 10131 Torino TO, Italy",ChIJ93EYh6NyiEcRol9bOnpHge0,"V.LE THOVEZ 37, TORINO, Italia",45.0543984,7.702055000000001,1,10131,OK,street_address
554,ROOFTOP,"Via Giovanni Paisiello, 44, 10154 Torino TO, Italy",ChIJqxuQeIltiEcR1hCQH1Y60yU,"V.PAISIELLO 44, TORINO, Italia",45.0909898,7.701198799999999,1,10154,OK,street_address
555,ROOFTOP,"Via Maria Ausiliatrice, 32, 10152 Torino TO, Italy",ChIJ3Zvo9qBtiEcR7CJ6I7Lz8eo,"V.M.AUSILIATRICE 32, TORINO, Italia",45.0810715,7.6759955,1,10152,OK,street_address
556,ROOFTOP,"Piazza Maria Ausiliatrice, 27, 10152 Torino TO, Italy",ChIJvfz-kaBtiEcRNRa6pcg86uQ,"P.ZA M.AUSILIATRICE 27, TORINO, Italia",45.0802609,7.675251599999999,1,10152,OK,street_address
557,ROOFTOP,"Via le Chiuse, 40, 10144 Torino TO, Italy",ChIJgzNOewdtiEcRKWFBdBP48Vg,"V.LE CHIUSE 40, TORINO, Italia",45.0795624,7.664022900000001,1,10144,OK,street_address
558,ROOFTOP,"Via Rosolino Pilo, 24, 10143 Torino TO, Italy",ChIJ7YG5DflsiEcR9AoUe7-Na9k,"V.ROSALINO PILO 24, TORINO, Italia",45.0780726,7.648128799999999,1,10143,OK,street_address
559,ROOFTOP,"Via Caprera, 46, 10136 Torino TO, Italy",ChIJn8lSTNZsiEcRB3Etx70inMM,"V.CAPRERA 46, TORINO, Italia",45.0505203,7.6466865,1,10136,OK,street_address
560,ROOFTOP,"Viale Giacomo Curreno, 21, 10133 Torino TO, Italy",ChIJOZlYUqdyiEcRtzRSMi0BGYk,"V.LE CURRENO 21, TORINO, Italia",45.0541454,7.6947132,1,10133,OK,street_address
561,ROOFTOP,"Via Rosolino Pilo, 24, 10143 Torino TO, Italy",ChIJ7YG5DflsiEcR9AoUe7-Na9k,"V.ROSALINO PILO 24, TORINO, Italia",45.0780726,7.648128799999999,1,10143,OK,street_address
562,RANGE_INTERPOLATED,"Via Antonio Cecchi, 2, 10152 Torino TO, Italy",Ei5WaWEgQW50b25pbyBDZWNjaGksIDIsIDEwMTUyIFRvcmlubyBUTywgSXRhbGlhIhoSGAoUChIJUeBj_JhtiEcRkefUpLi6z9wQAg,"V.CECCHI 2, TORINO, Italia",45.0845513,7.6838893,1,10152,OK,street_address
563,ROOFTOP,"Corso Trapani, 25, 10139 Torino TO, Italy",ChIJK6aFJPBsiEcRc4LPJCvghcA,"C.SO TRAPANI,25, TORINO, Italia",45.0724107,7.6416298,1,10139,OK,street_address
564,ROOFTOP,"Via della Consolata, 20, 10122 Torino TO, Italy",ChIJ_Qt1PHVtiEcRlYhkihEAtqo,"VIA DELLA CONSOLATA 20, TORINO, Italia",45.0776254,7.6792962,1,10122,OK,street_address
565,ROOFTOP,"Corso Unione Sovietica, 170, 10134 Torino TO, Italy",ChIJNXCR7tISiEcRwUBZOTTPeag,"CORSO UNIONE SOVIETICA 170, TORINO, Italia",45.041349,7.655392999999999,1,10134,OK,street_address
566,ROOFTOP,"Piazza Maria Ausiliatrice, 27, 10152 Torino TO, Italy",ChIJvfz-kaBtiEcRNRa6pcg86uQ,"PIAZZA MARIA AUSILIATRICE,27, TORINO, Italia",45.0802609,7.675251599999999,1,10152,OK,street_address
567,ROOFTOP,"Via Giovanni Migliara, 7, 10143 Torino TO, Italy",ChIJN4M0igBtiEcRjlnl_XJxiYE,"VIA MIGLIARA, 7, TORINO, Italia",45.0792503,7.6590957,1,10143,OK,street_address
568,ROOFTOP,"Via Paolo Sarpi, 123, 10135 Torino TO, Italy",ChIJP68mZicTiEcRaB1PvCOsX-M,"VIA PAOLO SARPI, 123, TORINO, Italia",45.0310439,7.6427197,1,10135,OK,street_address
569,RANGE_INTERPOLATED,"Via Rodolfo Bettazzi, 6, 10148 Torino TO, Italy",EjBWaWEgUm9kb2xmbyBCZXR0YXp6aSwgNiwgMTAxNDggVG9yaW5vIFRPLCBJdGFsaWEiGhIYChQKEglFQvTgwm2IRxEciCVVZaHOFBAG,"VIA R. BETTAZZI 6, TORINO, Italia",45.105832,7.683307500000001,1,10148,OK,street_address
570,ROOFTOP,"Via Santa Teresa, 20, 10121 Torino TO, Italy",ChIJXyP5dHJtiEcRIcM5fgRZGNo,"V.S.TERESA 20, TORINO, Italia",45.0695474,7.6799216,1,10121,OK,street_address
571,ROOFTOP,"Via S. Francesco da Paola, 42, 10123 Torino TO, Italy",ChIJrQNMfWhtiEcR1dRIkdR9e-4,"V.S.FRANCESCO DA PAOLA 42, TORINO, Italia",45.0620328,7.6843976,1,10123,OK,street_address
572,ROOFTOP,"Via Rosolino Pilo, 24, 10143 Torino TO, Italy",ChIJ7YG5DflsiEcR9AoUe7-Na9k,"VIA ROSALINO PILO 24, TORINO, Italia",45.0780726,7.648128799999999,1,10143,OK,street_address
573,ROOFTOP,"Via Cumiana, 2, 10141 Torino TO, Italy",ChIJGVMDcOZsiEcRXqatNB-KClA,"V.CUMIANA 2, TORINO, Italia",45.0665866,7.643653599999999,1,10141,OK,street_address
574,ROOFTOP,"Via delle Rosine, 14, 10123 Torino TO, Italy",ChIJgQYsCWRtiEcRHSm-EL5JRW0,"V.DELLE ROSINE 14, TORINO, Italia",45.06473889999999,7.6910523,1,10123,OK,street_address
575,ROOFTOP,"Viale Giacomo Curreno, 21, 10133 Torino TO, Italy",ChIJOZlYUqdyiEcRtzRSMi0BGYk,"V.LE CURRENO 21, TORINO, Italia",45.0541454,7.6947132,1,10133,OK,street_address
576,ROOFTOP,"Corso Siracusa, 10, 10136 Torino TO, Italy",ChIJ__-vksVsiEcRK_p5wai4oFo,"C.O SIRACUSA 10, TORINO, Italia",45.0547467,7.633800099999999,1,10136,OK,street_address
577,ROOFTOP,"Via Augusto Abegg, 19, 10126 Torino TO, Italy",ChIJaUvl67QSiEcR_yaREwGWsKg,"VIA ABEGG, 19, TORINO, Italia",45.0403707,7.6719521,1,10126,OK,street_address
578,ROOFTOP,"Via S. Francesco da Paola, 23, 10123 Torino TO, Italy",ChIJp3LLHWZtiEcRj8_ARZwKPQ8,"VIA SAN FRANCESCO DA PAOLA, 23, TORINO, Italia",45.06354049999999,7.686222,1,10123,OK,street_address
579,ROOFTOP,"Via Massena, 36, 10128 Torino TO, Italy",ChIJYd_w5j9tiEcRDXl-PBdoZ_k,"V.MASSENA 36, TORINO, Italia",45.0605335,7.6724331,1,10128,OK,street_address
580,ROOFTOP,"Viale Giacomo Curreno, 21, 10133 Torino TO, Italy",ChIJOZlYUqdyiEcRtzRSMi0BGYk,"V.LE CURRENO 21, TORINO, Italia",45.0541454,7.6947132,1,10133,OK,street_address
581,ROOFTOP,"Via Paolo Braccini, 75, 10141 Torino TO, Italy",ChIJaYm2rd9siEcRor805CBAcpY,"V.BRACCINI 75, TORINO, Italia",45.0602209,7.648586099999999,1,10141,OK,street_address
582,ROOFTOP,"Via Vinovo, 11, 10127 Torino TO, Italy",ChIJh3VuPZUSiEcR5nMqmBJyEdM,"V. VINOVO 11, TORINO, Italia",45.0218827,7.6644311,1,10127,OK,street_address
583,APPROXIMATE,"Turin, Metropolitan City of Turin, Italy",ChIJJb4YZBJtiEcRv3ec1gP4A4k,"C.so CAD.LAVORO 5, TORINO, Italia",45.070312,7.686856499999999,1,,OK,"locality,political"
584,ROOFTOP,"Via Ernesto Lugaro, 6, 10126 Torino TO, Italy",ChIJsf2wy0ltiEcRKJ3Mqw-V0E0,"V.LUGARO 6, TORINO, Italia",45.0483894,7.671473600000001,1,10126,OK,street_address
585,ROOFTOP,"Via Musinè, 8, 10143 Torino TO, Italy",ChIJNbZBjlVsiEcRKkyzPey8lNw,"V.MUSINE' 8, TORINO, Italia",45.08117319999999,7.6530353,1,10143,OK,street_address
586,ROOFTOP,"Via Giacomo Medici, 12, 10143 Torino TO, Italy",ChIJm9c8FP5siEcRs8dCZFdu4aY,"V.MEDICI 12, TORINO, Italia",45.07680879999999,7.654488199999999,1,10143,OK,street_address
587,ROOFTOP,"Corso Siracusa, 10, 10136 Torino TO, Italy",ChIJ__-vksVsiEcRK_p5wai4oFo,"CORSO SIRACUSA 10/A, TORINO, Italia",45.0547467,7.633800099999999,1,10136,OK,street_address
588,ROOFTOP,"Via Ancona, 2A, 10152 Torino TO, Italy",ChIJc0HBu4JtiEcRkhMbrSqUiyk,"V.ANCONA 2/A, TORINO, Italia",45.0789282,7.6905775,1,10152,OK,street_address
589,ROOFTOP,"Via Ludovico Bellardi, 56, 10146 Torino TO, Italy",ChIJj6KK6YhsiEcRdmLNgIIOV88,"V.BELLARDI 56, TORINO, Italia",45.07845,7.624464799999998,1,10146,OK,street_address
590,ROOFTOP,"Via Guido Reni, 53, 10136 Torino TO, Italy",ChIJk1o1-shsiEcRiSQXmu2tXLw,"V GUIDO RENI 53, TORINO, Italia",45.05211,7.629869999999999,1,10136,OK,street_address
591,ROOFTOP,"Via Rosolino Pilo, 24, 10143 Torino TO, Italy",ChIJ7YG5DflsiEcR9AoUe7-Na9k,"VIA R.PILO 24, TORINO, Italia",45.0780726,7.648128799999999,1,10143,OK,street_address
592,ROOFTOP,"Via Saverio Mercadante, 129, 10154 Torino TO, Italy",ChIJ-yf7HPVtiEcRTevOm7iATUM,"V.MERCADANTE 129, TORINO, Italia",45.09767919999999,7.7032915,1,10154,OK,street_address
593,ROOFTOP,"Via Giorgio Pallavicino, 20, 10153 Torino TO, Italy",ChIJ4zDsfYFyiEcR0us0be3gfGY,"V.PALLAVICINO 20, TORINO, Italia",45.0726625,7.7023115,1,10153,OK,street_address
594,ROOFTOP,"Via Caprera, 46, 10136 Torino TO, Italy",ChIJn8lSTNZsiEcRB3Etx70inMM,"VIA CAPRERA,46, TORINO, Italia",45.0505203,7.6466865,1,10136,OK,street_address
595,ROOFTOP,"Corso Orbassano, 122, 10136 Torino TO, Italy",ChIJzfNmo9VsiEcRPNI0eLWoDcE,"C.so ORBASSANO 122, TORINO, Italia",45.0464127,7.645700600000001,1,10136,OK,street_address
596,ROOFTOP,"Via Paolo Sarpi, 123, 10135 Torino TO, Italy",ChIJP68mZicTiEcRaB1PvCOsX-M,"V.SARPI 123, TORINO, Italia",45.0310439,7.6427197,1,10135,OK,street_address
597,RANGE_INTERPOLATED,"Via Carlo Poma, 14, 10137 Torino TO, Italy",EitWaWEgQ2FybG8gUG9tYSwgMTQsIDEwMTM3IFRvcmlubyBUTywgSXRhbGlhIhoSGAoUChIJ1Qc-jToTiEcR1TOjXfuRwJEQDg,"V.POMA 14, TORINO, Italia",45.0339763,7.630686000000001,1,10137,OK,street_address
598,ROOFTOP,"Via Ignazio Collino, 12, 10137 Torino TO, Italy",ChIJybPzFzYTiEcRAVXerWh38uQ,"V.COLLINO 12, TORINO, Italia",45.039651,7.623141400000001,1,10137,OK,street_address
599,ROOFTOP,"Via Giacomo Medici, 61, 10143 Torino TO, Italy",ChIJ-dc4-fhsiEcRidx9n5BcGjE,"V.MEDICI 61, TORINO, Italia",45.0788782,7.647975,1,10143,OK,street_address
600,ROOFTOP,"Via Spoleto, 5, 10143 Torino TO, Italy",ChIJB4aFylNsiEcRjiuejJtu8hQ,"V.SPOLETO 5, TORINO, Italia",45.08748,7.65422,1,10143,OK,street_address
601,ROOFTOP,"Via Caprera, 46, 10136 Torino TO, Italy",ChIJn8lSTNZsiEcRB3Etx70inMM,"VIA CAPRERA, 46, TORINO, Italia",45.0505203,7.6466865,1,10136,OK,street_address
602,ROOFTOP,"Via S. Francesco da Paola, 23, 10123 Torino TO, Italy",ChIJp3LLHWZtiEcRj8_ARZwKPQ8,"V.S.FRANCESCO PAOLA 23, TORINO, Italia",45.06354049999999,7.686222,1,10123,OK,street_address
603,ROOFTOP,"Via Massena, 36, 10128 Torino TO, Italy",ChIJYd_w5j9tiEcRDXl-PBdoZ_k,"VIA MASSENA 36, TORINO, Italia",45.0605335,7.6724331,1,10128,OK,street_address
604,ROOFTOP,"Via S. Giuseppe Benedetto Cottolengo, 14, 10152 Torino TO, Italy",ChIJV5P03J9tiEcR0LXzbMWxRO4,"VIA COTTOLENGO, 14, TORINO, Italia",45.0792741,7.680588599999999,1,10152,OK,street_address
605,ROOFTOP,"Via Piedicavallo, 5, 10145 Torino TO, Italy",ChIJ76DqxPBsiEcR6oc8o2iLOQA,"V.PIEDICAVALLO 5, TORINO, Italia",45.0757495,7.642177200000001,1,10145,OK,premise
606,ROOFTOP,"Corso Siracusa, 10, 10136 Torino TO, Italy",ChIJ__-vksVsiEcRK_p5wai4oFo,"C.SO SIRACUSA 10/A, TORINO, Italia",45.0547467,7.633800099999999,1,10136,OK,street_address
607,ROOFTOP,"Via S. Francesco da Paola, 23, 10123 Torino TO, Italy",ChIJp3LLHWZtiEcRj8_ARZwKPQ8,"V.S.FRANCESCO DA PAOLA 23, TORINO, Italia",45.06354049999999,7.686222,1,10123,OK,street_address
608,ROOFTOP,"Via Giovanni Paisiello, 37, 10154 Torino TO, Italy",ChIJKbi3KoptiEcR6YXJjFrW8Lc,"VIA PAISIELLO 37, TORINO, Italia",45.0915161,7.7013162,1,10154,OK,street_address
609,ROOFTOP,"Via S. Donato, 31, 10144 Torino TO, Italy",ChIJBQvfKqhtiEcRLG_N1pUIY4M,"VIA SAN DONATO 31, TORINO, Italia",45.0799537,7.6649722,1,10144,OK,street_address
610,ROOFTOP,"Via degli Artisti, 4, 10124 Torino TO, Italy",ChIJ6Xs19XxtiEcRP_2AS98an-4,"VIA ARTISTI, 4, TORINO, Italia",45.0707276,7.6944075,1,10124,OK,street_address
611,ROOFTOP,"Via Magenta, 29, 10128 Torino TO, Italy",ChIJSwiibRRtiEcRPWbzeFfYw90,"VIA MAGENTA 29, TORINO, Italia",45.0645414,7.671005699999999,1,10128,OK,street_address
612,ROOFTOP,"Via Giovenale Ancina, 29, 10154 Torino TO, Italy",ChIJc8w0XHNyiEcRteiVSbngBz4,"V. ANCINA 29, TORINO, Italia",45.0944955,7.7110213,1,10154,OK,street_address
613,ROOFTOP,"Via degli Artisti, 4, 10124 Torino TO, Italy",ChIJ6Xs19XxtiEcRP_2AS98an-4,"V.ARTISTI 4, TORINO, Italia",45.0707276,7.6944075,1,10124,OK,street_address
614,ROOFTOP,"Via Piedicavallo, 5, 10145 Torino TO, Italy",ChIJ76DqxPBsiEcR6oc8o2iLOQA,"VIA PIEDICAVALLO 5, TORINO, Italia",45.0757495,7.642177200000001,1,10145,OK,premise
615,ROOFTOP,"Viale Giacomo Curreno, 21, 10133 Torino TO, Italy",ChIJOZlYUqdyiEcRtzRSMi0BGYk,"VIALE CURRENO, 21, TORINO, Italia",45.0541454,7.6947132,1,10133,OK,street_address
616,ROOFTOP,"Via Sforzesca, 6, 10131 Torino TO, Italy",ChIJVbyoQaByiEcRh43w_fBnvcQ,"VIA SFORZESCA, 6, TORINO, Italia",45.0575696,7.696587200000001,1,10131,OK,street_address
